X,Y,OBJECTID,FEATURE_ID,ESITE,CODE,FEATUREDES,NAME,ABB_NAME,ADDRESS,ZIPCODE,LONG_CEN,LAT_CEN,OSPI_CODE,SCH_CLASS,DISTRICT,PIN,MAJOR,MINOR
1302082.00008261,181370.99991636,1,6600372,12188,665,School-Other Facility,Transportation/Maintenance,Transportation/Maintenance,420 Park Ave N,98057,-122.2018432,47.48896992,0,10,RENTON,7564600105,756460,0105
1266205.99998435,264111.000118434,2,1130,12392,660,School-Elementary,Christ the King School,Christ the King,415 N 117th St,98133,-122.35352907,47.71391534,0,20,SEATTLE,6140100225,614010,0225
1353612.00004077,83534.0000526905,3,6600382,392659,661,School-Junior High/Middle,Thunder Mountain Middle School,Thunder Mountain,42018 264th Ave SE,98022,-121.98751297,47.22310338,4550,10,ENUMCLAW,1320069010,132006,9010
1343594.00006369,238227.000049278,4,654,12138,660,School-Elementary,Louisa May Alcott School,Alcott,4213 228th Ave NE,98053,-122.03756079,47.64672037,0,10,LAKE WASHINGTON,1625069113,162506,9113
1327334.00010344,210058.999954939,5,231,2409,660,School-Elementary,Sunset Elementary School,Sunset,4229 W Lake Sammamish Pkwy SE,98008,-122.10163404,47.56879205,3228,10,ISSAQUAH,1324059064,132405,9064
1318397.99993086,210708.999967277,6,174,97,660,School-Elementary,Eastgate Elementary School,Eastgate,4255 153rd Ave SE,98006,-122.13787162,47.57016436,3036,10,BELLEVUE,2203500575,220350,0575
1303679.99983935,254886.999865681,7,467,8626,661,School-Junior High/Middle,Kirkland Middle School,Kirkland,430 18th Ave,98033,-122.20066278,47.69055932,2308,10,LAKE WASHINGTON,1245000676,124500,0676
1283449.9999451,174198.000154763,8,1335,21159,660,School-Elementary,Thorndyke Elementary School,Thorndyke,4415 S 150th St,98188,-122.27664538,47.46837553,3635,10,TUKWILA,0042000280,004200,0280
1422435.99985969,174013.999866605,9,6600677,24465,661,School-Junior High/Middle,Twin Falls Middle School,Twin Falls,46910 SE Middle Fork Rd,98045,-121.71474378,47.47362566,5135,10,SNOQUALMIE VALLEY,1823099046,182309,9046
1266152.44562952,246080.191363856,10,6600664,1008403,664,School-Alternative,KapKa Cooperative School,KapKa,510 N 49th St,98103,-122.3523012,47.66449091,0,20,SEATTLE,0850000300,085000,0300
1273632.99989411,207127.999911442,11,913,499517,660,School-Elementary,Maple Elementary School,Maple,4925 Corson Ave S,98108,-122.31889783,47.55812445,2353,10,SEATTLE,3869400560,386940,0560
1295598.99992527,100784.999999434,12,2191,59,662,School-High,Auburn Riverside High School,Riverside,501 Oravetz Rd SE,98092,-122.22217951,47.26776216,4474,10,AUBURN,6655000026,665500,0026
1285978.00013845,202392.999867022,13,1026,495696,660,School-Elementary,Graham Hill Elementary School,Graham Hill,5149 S Graham St,98118,-122.26855182,47.54578796,3378,10,SEATTLE,1102000138,110200,0138
1308472.00009786,247386.000103936,14,461,8633,664,School-Alternative,Holy Family Parish School K-8,Holy Family Parish,7300 120th Ave NE,98033,-122.18067562,47.67023031,0,20,LAKE WASHINGTON,0925059018,092505,9018
1283414.00001711,253438.000139028,15,961,350419,660,School-Elementary,Decatur Elementary School,Decatur,7711 43rd Ave NE,98115,-122.28282375,47.68557098,0,10,SEATTLE,6392002430,639200,2430
1260154.99994728,257968.999935269,16,1017,831688,661,School-Junior High/Middle,Whitman Middle School,Whitman,9201 15th Ave NW,98117,-122.37760357,47.69675028,3277,10,SEATTLE,3526039131,352603,9131
1239710.00015494,160191.999951601,17,6600619,21169,660,School-Elementary,Chautauqua Elementary School,Chatauqua,9309 SW Cemetery Rd,98070,-122.45225737,47.42760047,4468,10,VASHON ISLAND,0522039067,052203,9067
1238533.99988228,158589.999874771,18,780,1060717,662,School-High,Vashon Island High School,Vashon Island,9600 SW 204th St,98070,-122.4568707,47.42314168,2419,10,VASHON ISLAND,0522039057,052203,9057
1300558.99984777,233316.000028774,19,123,112995,660,School-Elementary,Clyde Hill Elementary School,Clyde Hill,9601 NE 24th St,98004,-122.21176454,47.63127952,2847,10,BELLEVUE,8086000305,808600,0305
1301673.99991436,264922.000136852,20,508,8623,660,School-Elementary,Juanita Elementary School,Juanita,9635 NE 132nd St,98034,-122.20953495,47.7179677,2796,10,LAKE WASHINGTON,3026059039,302605,9039
1299826.99999945,143858.000139356,21,373,801991,660,School-Elementary,East Hill Elementary School,East Hill,9825 S 240th St,98031,-122.20825234,47.38603468,2851,10,KENT,1922059001,192205,9001
1269619.0000481,243445.000111938,22,847,315735,661,School-Junior High/Middle,Hamilton International Middle School,Hamilton Intl,1610 N 41st St,98103,-122.3380266,47.65745462,0,10,SEATTLE,4083301505,408330,1505
1322814.9999551,177766.999906525,23,750,12170,662,School-High,Liberty High School,Liberty,16655 SE 136th St,98059,-122.11775447,47.48007052,3962,10,ISSAQUAH,1323059038,132305,9038
1315075.00001518,224736.000128433,24,207,80,662,School-High,Sammamish High School,Sammamish,100 140th Ave SE,98005,-122.15230454,47.60845843,3282,10,BELLEVUE,3425059019,342505,9019
1306886.99998702,138213.999944434,25,6600419,8602,665,School-Other Facility,Administration Center-Kent,Admin,12033 SE 256th St,98030,-122.17935952,47.37090626,0,10,KENT,2822059177,282205,9177
1267085.99986477,190904.999877185,26,1206,781976,660,School-Elementary,White Center Heights Elementary School,White Center Heights,10015 6th Ave SW,98146,-122.34411843,47.51330828,2639,10,HIGHLINE,2895800020,289580,0020
1299898.99985544,139247.999844939,27,379,8601,662,School-High,Kent-Meridian High School,Kent-Meridian,10020 SE 256th St,98030,-122.20762951,47.37340199,2797,10,KENT,2022059066,202205,9066
1303018.99984902,283481.000092268,28,263,113,664,School-Alternative,St. Brendan Parish School,St. Brendan,10049 NE 195th St,98011,-122.20541574,47.76890453,0,20,NORTHSHORE,0526059084,052605,9084
1323602.00002152,254959.00004977,29,633,12148,661,School-Junior High/Middle,Redmond Middle School,Redmond Middle,10055 166th Ave NE,98052,-122.11978933,47.69169819,3232,10,LAKE WASHINGTON,3626059032,362605,9032
1295168.00013112,111824.999901026,30,67,45,660,School-Elementary,Terminal Park Elementary School,Terminal Park,1101 D St SE,98002,-122.2247188,47.29800166,2659,10,AUBURN,1921059053,192105,9053
1314396.00006086,185773.999968603,31,756,579312,662,School-High,Hazen High School,Hazen,1101 Hoquiam Ave NE,98059,-122.15235017,47.50162819,0,10,RENTON,1023059072,102305,9072
1272092.00002337,125495.000120014,32,97,2364,661,School-Junior High/Middle,Sacajawea Middle School,Sacajawea,1101 S Dash Point Rd,98003,-122.31875777,47.33428885,3626,10,FEDERAL WAY,0521049024,052104,9024
1303530.00013936,147169.000079021,33,390,632908,660,School-Elementary,Park Orchard Elementary School,Park Orchard,11010 SE 232nd St,98031,-122.1935431,47.39529065,3491,10,KENT,1722059155,172205,9155
1281136.99997795,262342.00004752,34,2130,12280,661,School-Junior High/Middle,Jane Addams Middle School,Addams,11051 34th Ave NE,98125,-122.29275193,47.70985882,0,10,SEATTLE,0752000170,075200,0170
1322451.00002694,257770.000005186,35,624,12143,660,School-Elementary,Norman Rockwell Elementary School,Rockwell,11125 162nd Ave NE,98052,-122.12465368,47.69935058,0,10,LAKE WASHINGTON,3526059091,352605,9091
1305858.00007652,245086.000110775,36,6600178,8643,664,School-Alternative,Community School,Community,11133 NE 65th St  ,98033,-122.19111882,47.66379994,1706,10,LAKE WASHINGTON,0825059248,082505,9248
1280926.00007185,226730.000077441,37,1068,453428,660,School-Elementary,Madrona Elementary School ,Madrona ,1121 33rd Ave,98122,-122.2908698,47.61223559,2069,10,SEATTLE,7152200350,715220,0350
1264494.00012752,186917.999977186,38,1123,500877,664,School-Alternative,West Seattle Montessori School & Academy,West Seattle Montessori,11215 15th Ave SW,98146,-122.35428615,47.50224012,0,20,HIGHLINE,0723049112,072304,9112
1344844.99985828,221176.000030607,39,2172,12227,662,School-High,Skyline High School,Skyline,1122 228th Ave SE,98075,-122.03140959,47.60003441,4495,10,ISSAQUAH,0324069106,032406,9106
1304335.99983969,141605.000052184,40,371,631263,660,School-Elementary,George T. Daniel Elementary School,Daniel,11310 SE 248th St,98030,-122.18989361,47.38007841,4413,10,KENT,2022059119,202205,9119
1275779.99986519,263755.999844193,41,6600117,256128,664,School-Alternative,Hazel Wolf K-8 School,Hazel Wolf,11530 12th Ave NE,98125,-122.3146176,47.71345403,0,10,SEATTLE,2044500390,204450,0390
1375402.00009586,257394.000101015,42,271,194,660,School-Elementary,Stillwater Elementary School,Stillwater,11530 320th Ave NE,98014,-121.9096189,47.70055255,4332,10,RIVERVIEW,3326079040,332607,9040
1312087.0000857,259868.000074267,43,474,35270,663,School-College or University,Lake Washington Institute of Technology Kirkland Campus,Lake Washington IT,11605 132nd Ave NE,98034,-122.1668832,47.7046169,5953,10,LAKE WASHINGTON,2826059151,282605,9151
1312087.0000857,259868.000074267,44,6600122,35270,664,School-Alternative,Washington Network for Innovative Careers,WANIC,11605 132nd Ave NE,98034,-122.1668832,47.7046169,0,10,LAKE WASHINGTON,2826059151,282605,9151
1308158.00006969,267317.999938026,45,2206,8621,660,School-Elementary,Robert Frost Elementary School,Frost,11801 NE 140th St,98034,-122.18336873,47.72485005,3675,10,LAKE WASHINGTON,2126059025,212605,9025
1306396.99998277,133840.000162274,46,6600646,669319,660,School-Elementary,Millennium Elementary School,Millennium,11919 SE 270th St,98030,-122.18102758,47.35889336,4581,10,KENT,2822059052,282205,9052
1265159.00010985,254096.000135347,47,855,12397,664,School-Alternative,St. John Catholic School,St. John,120 N 79th St,98103,-122.35697601,47.68640801,0,20,SEATTLE,1646501150,164650,1150
1306667.00009894,187400.99999544,48,6600369,12184,661,School-Junior High/Middle,McKnight Middle School,McKnight,1200 Edmonds Ave NE,98056,-122.18372931,47.50572053,3035,10,RENTON,0423059048,042305,9048
1274644.99983861,227023.000147611,49,6600658,441089,662,School-High,Seattle Academy - Upper School,Seattle Academy,1201 E Union St,98122,-122.3163524,47.61270979,0,20,SEATTLE,3225049015,322504,9015
1273651.99985611,189364.000006437,50,1265,12259,660,School-Elementary,Beverly Park Elementary School,Beverly Park,1201 S 104th St,98168,-122.31743376,47.50943465,2765,10,HIGHLINE,0523049202,052304,9202
1308445.00015186,248551.000070527,51,473,8631,662,School-High,Lake Washington High School,Lake Washington,12033 NE 80th St,98033,-122.18086797,47.67342235,2739,10,LAKE WASHINGTON,0925059012,092505,9012
1310071.9998506,273522.999995187,52,268,110,660,School-Elementary,Woodmoor Elementary School,Woodmoor,12225 NE 160th St,98011,-122.1760331,47.7419501,4377,10,NORTHSHORE,1626059011,162605,9011
1282565.00007468,234666.999951437,53,940,426089,660,School-Elementary,McGilvra Elementary School,McGilvra,1617 38th Ave E,98112,-122.28483293,47.63407582,2201,10,SEATTLE,5318100820,531810,0820
1307422.99989927,117288.000129849,54,46,778311,663,School-College or University,Green River College,GRC,12401 SE 320th St,98092,-122.17572419,47.31357254,5952,10,AUBURN,1621059003,162105,9003
1276832.00005777,233992.99998711,55,950,425772,660,School-Elementary,Stevens Elementary School,Stevens,1242 18th Ave E,98112,-122.30802878,47.63192964,2080,10,SEATTLE,1337801270,133780,1270
1308514.00001386,154881.000074938,56,381,8580,662,School-High,Kentridge High School,Kentridge,12430 SE 208th St,98031,-122.17396616,47.41666943,3640,10,KENT,0422059014,042205,9014
1310234.99985269,244401.999838352,57,451,8638,660,School-Elementary,Ben Franklin Elementary School,Franklin,12434 NE 60th St,98033,-122.17331033,47.66213533,0,10,LAKE WASHINGTON,0925059028,092505,9028
1308968.00009011,160114.000107601,58,737,604256,661,School-Junior High/Middle,Meeker Middle School,Meeker,12600 SE 192nd St,98058,-122.17250042,47.43103512,3764,10,KENT,3323059054,332305,9054
1309895.99987452,218804.999851361,59,169,89,660,School-Elementary,Woodridge Elementary School,Woodridge,12619 SE 20th Pl,98005,-122.17287814,47.59195588,3167,10,BELLEVUE,9541600595,954160,0595
1310128.0000667,204286.000018016,60,6600686,237975,664,School-Alternative,Jing Mei Elementary School,Jing Mei,12635 SE 56th St,98006,-122.17091561,47.55216924,,10,BELLEVUE,2124059022,212405,9022
1308958.0001101,151029.999902934,61,400,8585,660,School-Elementary,Soos Creek Elementary School,Soos Creek,12651 SE 218th Pl,98031,-122.17190263,47.40613476,3707,10,KENT,0922059107,092205,9107
1308812.41181861,141008.716467857,62,401,670208,660,School-Elementary,Martin Sortun Elementary School,Sortun ,12711 SE 248th St,98030,-122.17178682,47.37865879,4294,10,KENT,2122059018,212205,9018
1312333.99991977,283002.000066027,63,267,115,660,School-Elementary,Woodin Elementary School,Woodin,12950 NE 195th St,98011,-122.1675087,47.7680405,3749,10,NORTHSHORE,0426059034,042605,9034
1277764.00016227,267585.000060186,64,1099,248792,660,School-Elementary,Olympic Hills Elementary School,Olympic Hills,13018 20th Ave NE,98125,-122.30685762,47.72405361,2976,10,SEATTLE,2126049041,212604,9041
1266084.99989827,268041.000132442,65,1129,247735,664,School-Alternative,Broadview-Thomson K-8 School,Broadview-Thomson,13052 Greenwood Ave N,98133,-122.35433594,47.7246807,2209,10,SEATTLE,1926049025,192604,9025
1263621.99990302,116861.999997601,66,329,2382,660,School-Elementary,Silver Lake Elementary School,Silver Lake,1310 SW 325th Pl,98023,-122.35222083,47.31017308,4343,10,FEDERAL WAY,1821049033,182104,9033
1261172.99987978,253147.00006485,67,1018,835325,660,School-Elementary,Whittier Elementary School,Whittier,1320 NW 75th St,98117,-122.37307881,47.68358941,2092,10,SEATTLE,4240400005,424040,0005
1280623.0000217,223037.999915525,68,1066,447772,660,School-Elementary,Leschi Elementary School,Leschi,135 32nd Ave,98122,-122.29181439,47.60210009,2121,10,SEATTLE,3416600240,341660,0240
1313630.99995044,246993.999903694,69,637,12152,661,School-Junior High/Middle,Rose Hill Middle School,Rose Hill Middle,13505 NE 75th St,98052,-122.15971234,47.66940145,3706,10,LAKE WASHINGTON,1025059119,102505,9119
1313533.00014645,246747.000069603,70,6600179,12152,664,School-Alternative,Stella Schola Middle Schol,Stella Schola,13505 NE 75th St,98052,-122.16009275,47.66871977,1975,10,LAKE WASHINGTON,1025059119,102505,9119
1272667.99985561,269116.999948934,71,1091,254609,661,School-Junior High/Middle,Lakeside Middle School,Lakeside Middle,13510 1st Ave NE,98125,-122.32767925,47.72798345,0,20,SEATTLE,2026049022,202604,9022
1313368.00014836,212026.999955937,72,189,96,661,School-Junior High/Middle,Tyee Middle School,Tyee,13630 SE Allen Rd,98006,-122.15833667,47.57354158,3283,10,BELLEVUE,1524059005,152405,9005
1269834.9999442,177996.000104681,73,1278,151,662,School-High,Kennedy Catholic High School,Kennedy Catholic,140 S 140th St,98168,-122.33197969,47.47807247,0,20,HIGHLINE,1723049528,172304,9528
1272928.99998978,270833.000125855,74,1090,250279,662,School-High,Lakeside High School,Lakeside High,14050 1st Ave NE,98125,-122.32675423,47.73270082,0,20,SEATTLE,2832100190,283210,0190
1315689.00009952,228196.000098184,75,209,144424,660,School-Elementary,Stevenson Elementary School,Stevenson,14220 NE 8th St,98007,-122.15005574,47.61797142,3100,10,BELLEVUE,2725059043,272505,9043
1262772.9999606,173718.000130519,76,1262,795370,664,School-Alternative,St. Francis of Assisi School,St. Francis of Assisi,15216 21st Ave SW,98166,-122.36018808,47.46596614,0,20,HIGHLINE,1901600005,190160,0005
1277326.00005403,273541.999957189,77,6600678,735678,664,School-Alternative,Fircrest School,Fircrest,15230 15th Ave NE,98155,-122.30910088,47.74035859,0,20,SHORELINE,1626049010,162604,9010
1278405.99986252,273833.000031352,78,1237,138088,662,School-High,Shorecrest High School,Shorecrest,15343 25th Ave NE,98155,-122.30473495,47.7412129,3343,10,SHORELINE,1626049008,162604,9008
1267188.99998686,273873.999949351,79,6600680,137319,664,School-Alternative,Northwest School for Deaf and Hard-of-Hearing Children,NW School Hearing Impaired,15303 Westminster Way N,98133,-122.35031835,47.74072835,0,20,SHORELINE,0306500020,030650,0020
1298560.99990678,273248.999887019,80,251,5927,662,School-High,Inglemoor High School,Inglemoor,15500 Simonds Rd NE,98028,-122.22278995,47.74063897,3492,10,NORTHSHORE,1826059008,182605,9008
1335428.99998952,171037.999913111,81,751,5771,660,School-Elementary,Maple Hills Elementary School,Maple Hills,15644 204th Ave SE,98059,-122.066315,47.46219096,3637,10,ISSAQUAH,2023069035,202306,9035
1268242.99984735,172263.000087768,82,6600244,140,665,School-Other Facility,Administration Center-Highline,Admin,15675 Ambaum Blvd SW,98166,-122.337963,47.46227336,0,10,HIGHLINE,1222000040,122200,0040
1297698.99999036,179957.000119686,83,6600373,579881,666,School-K-12,Renton Christian Schools,Renton Christian,15717 152nd Ave SE,98058,-122.21946492,47.48487908,0,20,RENTON,4204400340,420440,0340
1321020.9999342,226205.000143185,84,221,107374,660,School-Elementary,Jewish Day School,Jewish Day,15749 NE 4th St,98008,-122.12830359,47.61276188,0,20,BELLEVUE,3525059047,352505,9047
1238354.99991219,172951.00002411,85,6600713,21168,664,School-Alternative,Harbor School,Harbor,15920 Vashon Hwy SW,98070,-122.45881863,47.46249303,,20,VASHON ISLAND,2023039020,202303,9020
1333842.99988069,274133.000087515,86,796,21184,660,School-Elementary,Cottage Lake Elementary School,Cottage Lake,15940 Avondale Rd NE,98077,-122.07947254,47.7447181,3234,10,NORTHSHORE,1826069025,182606,9025
1300699.99989386,231301.000121772,87,110,104863,662,School-High,Bellevue Christian Junior and High School,Bellevue Christian,1701 98th Ave NE,98004,-122.21104651,47.62576323,0,20,BELLEVUE,3472800100,347280,0100
1307687.00002745,172599.000071943,88,743,609672,660,School-Elementary,Tiffany Park Elementary School,Park,1601 Lake Youngs Way SE,98058,-122.17855653,47.46519617,3702,10,RENTON,2123059057,212305,9057
1308427.99985777,274411.999857605,89,6600108,176349,660,School-Elementary,Evergreen Academy Elementary School,Evergreen,16017 118th Pl NE,98011,-122.18277719,47.74430808,0,20,NORTHSHORE,1626059124,162605,9124
1321740.28458486,221188.609913528,90,233,88,661,School-Junior High/Middle,Tillicum Middle School,Tillicum,1280 160th Ave SE,98008,-122.12504655,47.59904457,3435,10,BELLEVUE,0224059037,022405,9037
1306009.00010261,170232.999882683,91,721,611014,660,School-Elementary,Cascade Elementary School,Cascade,16022 116th Ave SE,98058,-122.18517129,47.45863021,3337,10,RENTON,2823059034,282305,9034
1278858.99994077,275469.000040188,92,1224,16166,661,School-Junior High/Middle,Kellogg Middle School,Kellogg,16045 25th Ave NE,98155,-122.30302112,47.74572086,3387,10,SHORELINE,1626049005,162604,9005
1265044.00001177,276484.999976695,93,1298,184059,663,School-College or University,Shoreline Community College,Shoreline CC,16101 Greenwood Ave N,98133,-122.35924479,47.74776871,0,10,SHORELINE,1326039001,132603,9001
1294577.00000077,182801.000009105,94,1307,519618,661,School-Junior High/Middle,Dimmit Middle School,Dimmit,12320 80th Ave S,98178,-122.23229819,47.49251977,3280,10,RENTON,1180007450,118000,7450
1279663.9999712,179050.999963194,95,1267,21154,660,School-Elementary,Cascade View Elementary School,Cascade View ,13601 32nd Ave S,98168,-122.29232141,47.48148193,3226,10,TUKWILA,1623049038,162304,9038
1382893.99987561,195981.99989377,96,6600676,195119,660,School-Elementary,Cascade View Elementary School,Cascade View,34816 SE Ridge St,98065,-121.87581831,47.53249075,5015,10,SNOQUALMIE VALLEY,2624079047,262407,9047
1267425.99984095,104864.000043526,97,87,2395,661,School-Junior High/Middle,Illahee Middle School,Illahee,36001 1st Ave S,98003,-122.33594653,47.27749198,3898,10,FEDERAL WAY,3021049013,302104,9013
1322154.99996278,232241.999880195,98,219,66,662,School-High,Interlake High School,Interlake,16245 NE 24th St,98008,-122.12411715,47.62936214,3588,10,BELLEVUE,2625059001,262505,9001
1304713.00006995,241932.999855101,99,6600030,8631,664,School-Alternative,Northstar Middle School,Northstar,10903 NE 53rd St,98033,-122.19553832,47.65510192,4167,10,LAKE WASHINGTON,1725059195,172505,9195
1276029.00002337,276735.000132859,100,6600104,16165,665,School-Other Facility,Transportation-Shoreline,Transportation,1216 NE 165th St,98155,-122.31462091,47.74904221,0,10,SHORELINE,0826049046,082604,9046
1294258.99998061,99426.0000927746,101,51,12131,660,School-Elementary,Ilalko Elementary School,Ilalko,301 Oravetz Pl SE,98092,-122.2274764,47.26397071,4417,10,AUBURN,3121059007,312105,9007
1313954.9999586,158096.999876514,102,574,8587,660,School-Elementary,Lake Youngs Elementary School,Lake Youngs,19660 142nd Ave SE,98042,-122.15221561,47.42574242,3550,10,KENT,0322059190,032205,9190
1313662.99988644,284090.999856517,103,808,83536,662,School-High,Woodinville High School,Woodinville,19819 136th Ave NE,98072,-122.16218173,47.77108856,4208,10,NORTHSHORE,0326059012,032605,9012
1270668.99991661,158541.999970764,104,1215,389688,660,School-Elementary,North Hill Elementary School,North Hill,19835 8th Ave S,98148,-122.32708125,47.42479409,2983,10,HIGHLINE,0522049087,052204,9087
1295847.00008544,115527.00004293,105,70,719556,660,School-Elementary,Washington Elementary School,Washington,20 E St NE,98002,-122.22225214,47.30818254,2326,10,AUBURN,1821059060,182105,9060
1302043.0001606,178521.000038937,106,6600704,585462,666,School-K-12,Renton Prep Christian School,Renton Prep,10056 Renton Ave S,98057,-122.20179599,47.48115601,0,20,RENTON,0007200050,000720,0050
1299998.99998352,156657.00013186,107,402,8589,660,School-Elementary,Springbrook Elementary School,Springbrook,20035 100th Ave SE,98031,-122.2084811,47.42112576,3677,10,KENT,0622059059,062205,9059
1335858.00011577,255599.000082105,108,657,12144,664,School-Alternative,The Overlake School,Overlake,20301 NE 108th St,98053,-122.07007318,47.69400321,0,20,LAKE WASHINGTON,1243100185,124310,0185
1291117.00003102,286355.999919683,109,1225,246640,661,School-Junior High/Middle,Kenmore Middle School,Kenmore,20323 66th Ave NE,98028,-122.25402216,47.77619304,3345,10,NORTHSHORE,0114100372,011410,0372
1271249.00006895,258712.00008969,110,1147,251998,663,School-College or University,North Seattle College,North Seattle College,9600 College Way N,98103,-122.33262041,47.69938809,0,10,SEATTLE,3226049021,322604,9021
1237793.00005195,158041.999986514,111,6600622,21173,665,School-Other Facility,Administration Center-Vashon Island,Admin,20414 Vashon Hwy SW,98070,-122.45981655,47.4215968,0,10,VASHON ISLAND,0522039032,052203,9032
1351290.00009161,78995.9999423474,112,291,201,660,School-Elementary,Byron Kibler Elementary School,Kibler,2057 Kibler Ave,98022,-121.99657958,47.21056836,2980,10,ENUMCLAW,2320069002,232006,9002
1336833.00013427,219356.000061691,113,6600674,1010038,660,School-Elementary,Creekside Elementary School,Creekside,20777 SE 16th St,98075,-122.06376219,47.59469903,5201,10,ISSAQUAH,0524069014,052406,9014
1275634.00015719,142478.999944597,114,1366,382434,660,School-Elementary,Parkside Elementary School,Parkside,2104 S 247th St,98198,-122.30578682,47.38102809,3335,10,HIGHLINE,2122049007,212204,9007
1277158.71003428,119881.45786944,115,6600681,979436,664,School-Alternative,Federal Way Open Doors,Open Doors,31453 28th Ave S,98003,-122.29789843,47.31916848,0,10,FEDERAL WAY,921049054,92104,9054
1276353.00003153,149352.999976099,116,1362,390217,660,School-Elementary,Midway Elementary School,Midway,22447 24th Ave S,98198,-122.30341514,47.39990727,2984,10,HIGHLINE,1622049238,162204,9238
1275287.41587661,149364.308352441,117,1363,386713,662,School-High,Mount Rainier High School,Mount Rainier,22450 19th Ave S,98198,-122.30771777,47.39988239,3279,10,HIGHLINE,1622049005,162204,9005
1270251.00009644,173564.000110433,118,1212,755357,662,School-High,Highline High School,Highline,225 S 152nd St,98148,-122.32994934,47.46594668,2325,10,HIGHLINE,2023049020,202304,9020
1348712.99999627,71969.9998867661,119,297,893822,662,School-High,Enumclaw High School,Enumclaw High,226 Semanski St S,98022,-122.00651466,47.19120223,3330,10,ENUMCLAW,2620069016,262006,9016
1339809.00008777,147878.99997136,120,532,618725,660,School-Elementary,Shadow Lake Elementary School,Shadow Lake ,22620 Sweeney Rd SE,98038,-122.04713463,47.39889973,3589,10,TAHOMA,1622069009,162206,9009
1344368.0001561,252154.000082359,121,6600641,365780,660,School-Elementary,Rosa Parks Elementary School,Rosa Parks,22845 NE Cedar Park Cres,98053,-122.03530338,47.68492957,5053,10,LAKE WASHINGTON,7202310150,720231,0150
1270712.0001587,215334.999901608,122,6600429,473560,665,School-Other Facility,John Stanford Center (Administration),John Stanford Center,230 S Lander St,98134,-122.33137248,47.58046445,0,10,SEATTLE,7666205235,766620,5235
1344179.99987595,217247.000014603,123,348,12219,660,School-Elementary,Discovery Elementary School,Discovery,2300 228th Ave SE,98075,-122.0338563,47.58923599,4376,10,ISSAQUAH,0324069051,032406,9051
1281479.45893869,206998.055289432,124,6600131,478363,664,School-Alternative,Interagency Academy,Interagency Academy,3528 S Ferdinand St,98118,-122.28711547,47.55817901,0,10,SEATTLE,1703400755,170340,0755
1344879.00011836,130546.999858513,125,6600555,665240,660,School-Elementary,Glacier Park Elementary School,Glacier Park,23700 SE 280th St,98038,-122.02558236,47.35160742,4453,10,TAHOMA,3422069020,342206,9020
1274559.00001061,237354.000154853,126,834,759081,662,School-High,Seattle Preparatory School,Seattle Prep ,2400 11th Ave E,98102,-122.31750859,47.64102231,0,20,SEATTLE,2025049007,202504,9007
1271998.99988127,250292.99986735,127,845,12303,660,School-Elementary,Green Lake Elementary School,Green Lake,2400 N 65th St,98103,-122.32891093,47.67635191,2061,10,SEATTLE,9528104870,952810,4870
1277072.99990386,145643.999848187,128,1359,382215,663,School-College or University,Highline College,Highline College,2400 S 240th St,98198,-122.30022312,47.38977862,0,10,HIGHLINE,1622049016,162204,9016
1278563.99987461,219012.00009352,129,1169,452716,660,School-Elementary,Thurgood Marshall Elementary School,Marshall,2401 S Irving St,98144,-122.29984793,47.59095759,2141,10,SEATTLE,9344400300,934440,0300
1302666.99989685,169995.000030607,130,669,593856,661,School-Junior High/Middle,Nelson Middle School,Nelson,2403 Jones Ave S,98055,-122.19866137,47.45781613,0,10,RENTON,2923059061,292305,9061
1276361.00001553,124784.999899611,131,106,2365,660,School-Elementary,Wildwood Elementary School,Wildwood,2405 S 300th St,98003,-122.30149085,47.3325673,3583,10,FEDERAL WAY,0421049167,042104,9167
1347784.99988377,150931.00010094,132,533,620377,660,School-Elementary,Tahoma Elementary School,Tahoma,24425 SE 216th St,98038,-122.01512331,47.40760597,3341,10,TAHOMA,1122069027,112206,9027
1281483.99994011,142191.999862432,133,439,615649,660,School-Elementary,Sunnycrest Elementary School,Sunnycrest,24629 42nd Ave S,98032,-122.28215703,47.38054576,3567,10,FEDERAL WAY,2222049146,222204,9146
1288967.00006594,141970.999976352,134,417,615980,660,School-Elementary,Kent Elementary School,Kent,24700 64th Ave S,98032,-122.2519426,47.38032212,0,10,KENT,5436200660,543620,0660
1272923.99999978,237846.000155106,135,6600212,837474,664,School-Alternative,TOPS K-8 School (The Option Program at Seward),TOPS,2500 Franklin Ave E,98102,-122.32417829,47.64228424,1579,10,SEATTLE,1959700005,195970,0005
1351487.00002569,212813.000024348,136,341,875876,660,School-Elementary,Challenger Elementary School,Challenger,25200 SE Klahanie Blvd,98029,-122.00397549,47.57739018,4300,10,ISSAQUAH,1124069091,112406,9091
1325691.00010861,139697.99992919,137,564,666111,660,School-Elementary,Crestwood Elementary School,Crestwood,25225 180th Ave SE,98042,-122.10358535,47.37585008,4126,10,KENT,2422059063,242205,9063
1322974.99996319,232674.999998435,138,227,68,660,School-Elementary,Sherwood Forest Elementary School,Sherwood Forest,16411 NE 24th St,98008,-122.12082144,47.63058669,3339,10,BELLEVUE,2525059092,252505,9092
1273440.19384928,228573.610563442,139,1077,836506,663,School-College or University,Seattle Central College,Seattle Central,1701 Broadway,98122,-122.32135758,47.61689623,0,10,SEATTLE,6003001130,600300,1130
1254525.02859569,210481.22680077,140,991,466141,660,School-Elementary,Genesee Hill Elementary School,Genesee Hill,5013 SW Dakota St,98116,-122.39654478,47.56627802,3429,10,SEATTLE,2095200005,209520,0005
1281835.99989228,196979.999866277,141,1029,512739,660,School-Elementary,Wing Luke Elementary School,Wing Luke,3701 S Kenyon St ,98118,-122.28490661,47.53073793,3581,10,SEATTLE,4006000598,400600,0598
1302958.99996902,169474.000088349,142,687,12199,664,School-Alternative,Renton Academy,Renton Academy,2607 Jones Ave S,98055,-122.19744391,47.45640223,0,10,RENTON,2923059061,292305,9061
1256980.00006369,215400.000099689,143,995,470929,660,School-Elementary,Lafayette Elementary School,Lafayette,2645 California Ave SW,98116,-122.38700479,47.57989631,2733,10,SEATTLE,9277200005,927720,0005
1330063.99989277,135578.999965101,144,560,666235,660,School-Elementary,Cedar Valley Elementary School,Cedar Valley,26500 Timberlane Way SE,98042,-122.08566838,47.36475588,3676,10,KENT,3022069050,302206,9050
1279929.00009736,255319.999983937,145,6600006,347544,660,School-Elementary,Wedgewood Elementary School,Wedgewood,2720 NE 85th St ,98115,-122.29711532,47.69054872,3026,10,SEATTLE,0439000615,043900,0615
1275992.00009736,250454.999871433,146,975,338736,662,School-High,Roosevelt High School,Roosevelt,1410 NE 66th St,98115,-122.31271817,47.67700749,2285,10,SEATTLE,8826900005,882690,0005
1270145.99997836,284518.999984771,147,1133,16147,660,School-Elementary,Echo Lake Elementary School,Echo Lake,19345 Wallingford Ave N,98133,-122.33914909,47.77006496,3104,10,SHORELINE,8649100005,864910,0005
1375364.99984178,239600.999925941,148,6600209,160,665,School-Other Facility,Administration Center-Riverview,Admin,32240 NE 50th St,98014,-121.90875962,47.65177663,0,10,RIVERVIEW,1625079060,162507,9060
1399052.00003986,192417.000134021,149,759,21152,660,School-Elementary,Snoqualmie Elementary School,Snoqualamie,39801 SE Park St,98065,-121.81023275,47.52329927,2288,10,SNOQUALMIE VALLEY,3224089084,322408,9084
1278173.99999844,224188.999910101,150,1064,762595,662,School-High,Garfield High School,Garfield,400 23rd Ave,98122,-122.30182839,47.60512732,2306,10,SEATTLE,6840701230,684070,1230
1259634.00000502,189696.999996603,151,6600015,524594,664,School-Alternative,Westside School,Westside,10404 34th Ave SW,98146,-122.37416912,47.50959221,0,20,SEATTLE,7804400110,780440,0110
1304733.00002994,242640.000081524,152,470,539270,664,School-Alternative,Kirkland Seventh-day Adventist School K-8,Kirkland Seventh-day Adventist,5320 108th Ave NE,98033,-122.19550794,47.65704082,0,20,LAKE WASHINGTON,1725059198,172505,9198
1348330.00010611,70469.9999340177,153,298,207,661,School-Junior High/Middle,Enumclaw Middle School,Enumclaw Middle,550 Semanski St S,98022,-122.00796261,47.1870746,4210,10,ENUMCLAW,2620069020,262006,9020
1304668.00015993,242808.000073597,154,6600168,35858,663,School-College or University,Northwest University,NW University,5520 108th Ave NE,98033,-122.19578372,47.65749816,0,10,LAKE WASHINGTON,1725059203,172505,9203
1341034.99993236,198103.999914855,155,358,2415,660,School-Elementary,Issaquah Valley Elementary School,Issaquah Valley,555 NW Holly St,98027,-122.04537808,47.5366269,3673,10,ISSAQUAH,2824069012,282406,9012
1263744.99998511,248202.000112355,156,903,12307,660,School-Elementary,West Woodland Elementary School,West Woodland,5601 4th Ave NW,98107,-122.36224039,47.67017601,2142,10,SEATTLE,2768000375,276800,0375
1285546.00001819,119818.999989107,157,7,33,660,School-Elementary,Evergreen Heights Elementary School,Evergreen Heights,5602 S 316th St,98001,-122.26408625,47.31942973,3745,10,AUBURN,1121049022,112104,9022
1287784.00013536,174312.999924764,158,6600241,21158,660,School-Elementary,Tukwila Elementary School,Tukwila,5939 S 149th St,98168,-122.25913453,47.4689122,3488,10,TUKWILA,3597000120,359700,0120
1269993.99995427,228631.999882355,159,6600661,840697,660,School-Elementary,Spruce Street School,Spruce Street,914 Virginia St,98101,-122.33533236,47.61687277,0,20,SEATTLE,0660001365,066000,1365
1262702.00010261,237401.000060856,160,1042,835401,660,School-Elementary,Coe Elementary School,Coe,2424 7th Ave W,98119,-122.36560014,47.6405142,2090,10,SEATTLE,9270200005,927020,0005
1266642.84458311,185948.073767439,161,10000078,520459,662,School-High,Evergreen High School,Evergreen,830 SW 116th St,98146,-122.34551726,47.49969766,0,10,HIGHLINE,0723049367,072304,9367
1304415.00000978,264248.999842435,162,10000086,42811,664,School-Alternative,Cambridge Program,Cambridge,10601 NE 132nd St,98034,-122.19835301,47.71625679,0,10,LAKE WASHINGTON,2926059049,292605,9049
1315695.05454935,276747.913492858,163,10000088,164354,660,School-Elementary,Chrysalis Elementary School,Chrysalis,17005 140th Ave NE,98072,-122.15340726,47.75105645,0,20,NORTHSHORE,1026059074,102605,9074
1266198.00000036,230361.000033274,164,6600332,439725,664,School-Alternative,The Center School,Center School,305 Harrison St,98109,-122.3508587,47.62140777,1856,10,SEATTLE,1985200305,198520,0305
1269238.00015394,246138.999973267,165,6600649,841015,664,School-Alternative,Seattle Waldorf School - Kinderhaus Campus,Waldorf Kindergarten,4919 Woodlawn Ave N,98103,-122.33978624,47.66481834,0,20,SEATTLE,6865200005,686520,0005
1300390.9998557,230724.999961436,166,150,165,660,School-Elementary,Sacred Heart School,Sacred Heart,9450 NE 14th St,98004,-122.21225754,47.62416922,0,20,BELLEVUE,4107100041,410710,0041
1322535.99985693,226953.999957517,167,6600584,111950,660,School-Elementary,Calvary Lutheran,Calvary Lutheran,16231 NE 6th St,98008,-122.12221311,47.61488468,0,20,BELLEVUE,3316500185,331650,0185
1322564.00012903,247422.000031933,168,6600208,354683,665,School-Other Facility,Administration Center-Lake Washington,Admin,16250 NE 74th St,98052,-122.12349051,47.67099088,0,10,LAKE WASHINGTON,7202410070,720241,0070
1321579.00013052,140651.999989688,169,575,664034,661,School-Junior High/Middle,Mattson Middle School,Mattson,16400 SE 251st St,98042,-122.12024289,47.37827785,4127,10,KENT,2422059168,242205,9168
1322900.00011319,217073.000034526,170,228,93,660,School-Elementary,Spiritridge Elementary School,Spiritridge,16401 SE 24th St,98008,-122.12006783,47.58781649,3634,10,BELLEVUE,1224059122,122405,9122
1320697.99992402,118158.000030264,171,53,22,660,School-Elementary,Lake View Elementary School,Lake View,16401 SE 318th St,98092,-122.122278,47.3165793,4120,10,AUBURN,1221059011,122105,9011
1310685.99993494,168754.999885932,172,726,12171,662,School-High,Lindbergh High School,Lindbergh,16426 128th Ave SE,98058,-122.16616497,47.4548025,3741,10,RENTON,2823059042,282305,9042
1323948.9999837,282672.000069857,173,805,81454,660,School-Elementary,Wellington Elementary School,Wellington,16501 NE 195th St,98072,-122.12026185,47.76767812,4069,10,NORTHSHORE,0126059053,012605,9053
1275282.99987493,276786.00003086,174,1236,18010,660,School-Elementary,Ridgecrest Elementary School,Ridgecrest ,16516 10th Ave NE,98155,-122.31765676,47.7491426,2703,10,SHORELINE,0826049052,082604,9052
1316764.99991603,168127.000157684,175,727,597271,660,School-Elementary,Fairwood Elementary School,Fairwood,16600 148th Ave SE,98058,-122.14155422,47.45336699,3678,10,KENT,2623059007,262305,9007
1323742.0000696,235910.000090107,176,211,63,660,School-Elementary,Ardmore Elementary School,Ardmore,16616 NE 32nd St,98008,-122.11793015,47.6394893,3633,10,BELLEVUE,2425059033,242505,9033
1324228.00008185,167719.999987438,177,733,602982,660,School-Elementary,Maple Valley Christian Elementary School,Maple Valley Christian,16700 174th Ave SE,98058,-122.11136664,47.45259506,0,20,KENT,2523059050,252305,9050
1324315.99990585,249015.000126764,178,635,12151,660,School-Elementary,Redmond Elementary School,Redmond,16800 NE 80th St,98052,-122.11648828,47.67543775,2289,10,LAKE WASHINGTON,0125059048,012505,9048
1276391.99995352,227231.000059694,179,6600227,447450,664,School-Alternative,Seattle World School,Seattle World,1700 E Union St,98122,-122.30928711,47.61337197,0,10,SEATTLE,7234600635,723460,0635
1303340.9998612,191730.999865606,180,704,892489,660,School-Elementary,Kennydale Elementary School,Kennydale,1700 NE 28th St,98056,-122.19749441,47.51742857,2597,10,RENTON,3342103310,334210,3310
1325225.00005636,254943.000081778,181,617,12147,660,School-Elementary,Horace Mann Elementary School,Mann,17001 NE 104th St,98052,-122.11319913,47.6917285,0,10,LAKE WASHINGTON,3626059017,362605,9017
1323459.99997744,161864.999886438,182,6600248,12202,661,School-Junior High/Middle,Northwood Middle School,Northwood,17007 SE 184th St,98058,-122.11407659,47.43651088,4485,10,KENT,3623059009,362305,9009
1276875.99996978,218055.000039026,183,6600715,1132055,664,School-Alternative,Hamlin Robinson School,HRS,1701 20th Ave S,98144,-122.30661314,47.58824609,,20,SEATTLE,7548300835,754830,0835
1323411.00007544,179016.000033185,184,746,573184,660,School-Elementary,Briarwood Elementary School,Briarwood,17020 SE 134th St,98059,-122.11542875,47.4835214,3440,10,ISSAQUAH,1323059026,132305,9026
1317856.49576452,137983.282886192,185,562,1255197,660,School-Elementary,Covington Elementary School,Covington,25811 156th Ave SE,98042,-122.13508284,47.37079105,3388,10,KENT,8586400042,858640,0042
1319047.9999432,277032.999864936,186,801,202643,660,School-Elementary,Hollywood Hill Elementary School,Hollywood Hill,17110 148th Ave NE,98072,-122.139799,47.75199473,4124,10,NORTHSHORE,1126059032,112605,9032
1297341.00005019,104487.000141352,187,45,788781,660,School-Elementary,Gildo Rey Elementary School,Rey,1005 37th St SE,98002,-122.21543237,47.27799537,3669,10,AUBURN,3021059195,302105,9195
1306200.0000487,152423.000069693,188,6600545,627566,660,School-Elementary,Emerald Park Elementary School,Emerald Park,11800 SE 216th St,98031,-122.18313694,47.40982103,4545,10,KENT,0922059182,092205,9182
1305561.00001436,122981.99989669,189,49,19,660,School-Elementary,Hazelwood Elementary School,Hazelwood,11815 SE 304th St,98092,-122.18363151,47.32909081,4347,10,AUBURN,0921059123,092105,9123
1327283.99987535,210447.000163183,190,6600716,235569,664,School-Alternative,French Immersion School of Washington,FISW,4211 W Lake Sammamish Pkwy SE,98008,-122.10186246,47.56985335,,20,ISSAQUAH,1324059109,132405,9109
1316228.00000578,275588.000130266,191,6600722,160193,666,School-K-12,Woodinville Montessori School - Woodinville Campus,Woodinville Montessori,13965 NE 166th St,98072,-122.1511604,47.74790208,,20,NORTHSHORE,1026059032,102605,9032
1295200.77893694,119325.65484719,192,6600723,1144445,663,School-College or University,Green River College Auburn Center,GRC,1221 D St NE,98002,-122.22513324,47.31856275,0,10,AUBURN,0721059055,072105,9055
1316450.87029494,99140.5728421062,193,10000048,1000553,666,School-K-12,Muckleshoot Tribal School,Muckleshoot Tribal,15209 SE 376th St,98092,-122.13809753,47.2642549,0,20,AUBURN,3521059064,352105,9064
1321700.06977028,91836.6097597778,194,10000049,806841,663,School-College or University,Muckleshoot Tribal College,Muckleshoot Tribal ,39811 Auburn-Enumclaw Road SE,98092,-122.11647011,47.24447619,0,20,AUBURN,0220059089,022005,9089
1339649.00007969,230581.999919355,195,655,12222,660,School-Elementary,Margaret Mead Elementary School,Mead,1725 216th Ave NE,98074,-122.05307177,47.62559398,4096,10,LAKE WASHINGTON,2825069055,282506,9055
1309150.0000542,273977.000071436,196,260,109,661,School-Junior High/Middle,Northshore Middle School,Northshore,12101 NE 160th St,98011,-122.17981212,47.74315039,4021,10,NORTHSHORE,1626059131,162605,9131
1326913.99995919,256079.00010635,197,632,568136,662,School-High,Redmond High School,Redmond High,17272 NE 104th St,98052,-122.10641832,47.69491919,3528,10,LAKE WASHINGTON,3626059014,362605,9014
1267792.00009319,279117.99996002,198,1156,16155,662,School-High,Shorewood High School,Shorewood,17300 Fremont Ave N,98133,-122.34828757,47.75513443,3921,10,SHORELINE,0726049134,072604,9134
1266484.00008452,279724.00006035,199,1157,184012,664,School-Alternative,St. Luke School,St. Luke,17533 Saint Luke Pl N,98133,-122.35365269,47.75672475,0,20,SHORELINE,6190700150,619070,0150
1271810.99992919,164457.999949768,200,6600614,144,664,School-Alternative,Puget Sound Skills Center,Skills Center,18010 8th Ave S,98148,-122.3229313,47.44107035,0,10,HIGHLINE,3223049284,322304,9284
1328988.00007628,258710.000093684,201,6600123,12141,660,School-Elementary,Albert Einstein Elementary School,Einstein,18025 NE 116th St  ,98052,-122.09817321,47.70222479,0,10,LAKE WASHINGTON,3126069130,312606,9130
1321477.00000644,163325.999917194,202,742,595133,660,School-Elementary,Ridgewood Elementary School,Ridgewood,18030 162nd Pl SE,98058,-122.12218673,47.44042489,4293,10,KENT,3523059030,352305,9030
1276301.00013553,281054.000025019,203,1239,16162,664,School-Alternative,St. Mark Catholic Classical School,St. Mark,18033 15th Pl NE,98155,-122.31385316,47.76089483,0,20,SHORELINE,6163900550,616390,0550
1259293.00003086,250739.999957606,204,6600216,321810,664,School-Alternative,Salmon Bay K-8 School ,Salmon Bay,1810 NW 65th St,98117,-122.38051322,47.67688863,1796,10,SEATTLE,7518503620,751850,3620
1306581.99994086,279801.999904349,205,2141,180835,663,School-College or University,University of Washington-Bothell,UW Bothell,18115 Campus Way NE,98011,-122.19066544,47.75899339,0,10,NORTHSHORE,0526059057,052605,9057
1270582.00009061,273825.000047356,206,1153,16150,660,School-Elementary,Parkwood Elementary School,Parkwood,1815 N 155th St,98133,-122.33652713,47.74077652,3489,10,SHORELINE,1826049062,182604,9062
1270138.99999236,268527.00014469,207,1138,12274,662,School-High,Ingraham High School,Ingraham,1819 N 135th St,98133,-122.33790636,47.72623122,3276,10,SEATTLE,1926049321,192604,9321
1344107.61714669,132769.143052027,208,580,1228969,662,School-High,Tahoma High School,Tahoma,23499 SE Tahoma Way,98038,-122.02883296,47.35766584,0,10,TAHOMA,3422069114,342206,9114
1306394.99998677,280088.999986514,209,2142,174096,663,School-College or University,Cascadia College,Cascadia,18225 Campus Way NE,98011,-122.19144618,47.75977103,0,10,NORTHSHORE,0526059057,052605,9057
1312819.99993202,162596.00006485,210,720,599695,660,School-Elementary,Carriage Crest Elementary School,Carriage Crest,18235 140th Ave SE,98058,-122.15711257,47.43802114,4353,10,KENT,3423059023,342305,9023
1281804.99995427,163569.000087351,211,1317,12230,660,School-Elementary,Bow Lake Elementary School,Bow Lake,18237 42nd Ave S,98188,-122.28248597,47.43915666,2982,10,HIGHLINE,3423049094,342304,9094
1296910.21351019,109093.767174527,212,61,1258816,661,School-Junior High/Middle,Olympic Middle School,Olympic,839 21st St SE,98002,-122.21750113,47.2906014,3169,10,AUBURN,1921059192,192105,9192
1283974.99987936,163272.000025183,213,1331,400677,666,School-K-12,Seattle Christian School,Seattle Christian,18301 Military Rd S,98188,-122.27369659,47.43845425,0,20,HIGHLINE,3423049030,342304,9030
1282718.00009677,281721.000003353,214,1230,537576,660,School-Elementary,Lake Forest Park Elementary School,Lake Forest Park,18500 37th Ave NE,98155,-122.28781872,47.76305846,2185,10,SHORELINE,0326049018,032604,9018
1272464.99993353,123052.000084773,215,6600285,2366,665,School-Other Facility,Federal Way Memorial Field,FedWay Memorial Field,1300 S 308th St,98003,-122.31706397,47.3276124,0,10,FEDERAL WAY,0821049001,082104,9001
1274746.99996269,222801.000061437,216,1175,442502,660,School-Elementary,Bailey Gatzert Elementary School,Gatzert,1301 E Yesler Way,98122,-122.31560932,47.60114275,2307,10,SEATTLE,3319500005,331950,0005
1319871.99993561,224667.999936357,217,208,118747,664,School-Alternative,St. Louise School,St. Louise,133 156th Ave SE,98007,-122.13285605,47.60849572,0,20,BELLEVUE,3525059044,352505,9044
1316958.99985611,234266.000097275,218,2077,115528,663,School-College or University,Bellevue College-North Campus,Bellevue College-North Campus,14673 NE 29th Pl,98007,-122.14532657,47.63466929,0,10,BELLEVUE,4306700020,430670,0020
1318024.00002269,231035.999995604,219,196,69,661,School-Junior High/Middle,Highland Middle School,Highland,15027 Bel Red Rd,98007,-122.14078508,47.62586524,3166,10,BELLEVUE,2625059039,262505,9039
1267149.00006686,158730.99992086,220,1252,614898,660,School-Elementary,Marvista Elementary School,Marvista,19800 Marine View Dr SW,98166,-122.34131305,47.42512396,3097,10,HIGHLINE,6113400095,611340,0095
1294276.99994461,130919.000098765,221,380,672022,660,School-Elementary,Kent View Christian Elementary School,Kent View Christian,20 49th St NE,98002,-122.22970463,47.35029453,0,20,AUBURN,9360000135,936000,0135
1274760.99993469,217082.000016525,222,1168,473848,660,School-Elementary,Beacon Hill International Elementary School,Beacon Hill,2025 14th Ave S,98144,-122.31510634,47.5854678,2070,10,SEATTLE,1498300850,149830,0850
1276194.00002144,148800.000097856,223,1365,382195,661,School-Junior High/Middle,Pacific Middle School,Pacific,22705 24th Ave S,98198,-122.30401437,47.39838318,3333,10,HIGHLINE,1622049239,162204,9239
1299621.00008336,170289.000098765,224,689,608756,660,School-Elementary,Talbot Hill Elementary School,Talbot Hill,2300 Talbot Rd S,98055,-122.21099323,47.45847322,3740,10,RENTON,3023059073,302305,9073
1284282.99991952,194825.999909192,225,1024,515735,660,School-Elementary,Dunlap Elementary School,Dunlap,4525 S Cloverdale St,98118,-122.27483994,47.52495988,2321,10,SEATTLE,2123700235,212370,0235
1281831.99990028,251620.999836028,226,959,749449,660,School-Elementary,Concordia Lutheran School,Concordia Lutheran,7040 36th Ave NE,98115,-122.28910588,47.68050874,0,20,SEATTLE,7974200450,797420,0450
1340960.00008236,281914.999943435,227,6600205,21195,661,School-Junior High/Middle,Timbercrest Middle School,Timbercrest,19115 215th Way NE,98077,-122.05104907,47.76636186,4516,10,NORTHSHORE,0426069010,042606,9010
1264321.00014544,236022.999864101,228,1048,411652,661,School-Junior High/Middle,McClure Middle School,McClure,1915 1st Ave W,98119,-122.35892332,47.63682533,3517,10,SEATTLE,1794501220,179450,1220
1324916.00001819,282613.999857768,229,802,21188,661,School-Junior High/Middle,Leota Middle School,Leota,19301 168th Ave NE,98072,-122.1163263,47.76756339,3790,10,NORTHSHORE,0126059053,012605,9053
1264280.99989736,284486.000050768,230,1289,16144,661,School-Junior High/Middle,Einstein Middle School,Einstein,19343 3rd Ave NW,98177,-122.36299195,47.76965747,3674,10,SHORELINE,0126039050,012603,9050
1266447.00015852,284358.999976695,231,1142,154730,666,School-K-12,Kings Schools,Kings ,19351 Kings Garden Dr N,98133,-122.35417542,47.76942704,0,20,SHORELINE,0626049016,062604,9016
1306401.99997278,159167.00003311,232,6600251,8588,660,School-Elementary,Glenridge Elementary School,Glenridge,19405 120th Ave SE,98031,-122.18279874,47.42831648,4489,10,KENT,7932000015,793200,0015
1304917.99998802,283720.999940351,233,255,114,660,School-Elementary,Maywood Hills Elementary School,Maywood Hills,19510 104th Ave NE,98011,-122.19771207,47.76965493,3344,10,NORTHSHORE,0526059178,052605,9178
1303787.99995144,283745.999890357,234,249,173414,660,School-Elementary,Heritage Christian Academy,Heritage Christian,19527 104th Ave NE,98011,-122.2023083,47.76966845,0,20,NORTHSHORE,0526059080,052605,9080
1261907.00005218,285317.000029191,235,1301,16157,660,School-Elementary,Syre Elementary School,Syre ,19545 12th Ave NW,98177,-122.37271148,47.77180545,3527,10,SHORELINE,0126039400,012603,9400
1331623.00005561,133518.000150099,236,6600485,172,661,School-Junior High/Middle,Cedar Heights Middle School,Cedar Heights,19640 SE 272nd St  ,98042,-122.07924402,47.35917579,4440,10,KENT,2922069030,292206,9030
1266054.99995828,234568.000149444,237,926,412420,660,School-Elementary,John Hay Elementary School,John Hay,201 Garfield St,98109,-122.35177496,47.63293125,2063,10,SEATTLE,0809000005,080900,0005
1279046.99989286,156680.00008586,238,6600477,400964,660,School-Elementary,Madrona Elementary School ,Madrona,20301 32nd Ave S,98198,-122.2931005,47.42013105,3278,10,HIGHLINE,3445000085,344500,0085
1297766.99985436,123186.000144854,239,34,797548,661,School-Junior High/Middle,Cascade Middle School,Cascade,1015 24th St NE,98002,-122.21506866,47.3292708,2394,10,AUBURN,5094400080,509440,0080
1266431.99986044,186897.000019193,240,1193,744863,661,School-Junior High/Middle,Cascade Middle School,Cascade,11212 10th Ave SW,98146,-122.34644552,47.50228728,3163,10,HIGHLINE,0723049367,072304,9367
1286988.00008695,185254.000024348,241,1310,501718,660,School-Elementary,Rainier View Elementary School,Rainier View,11650 Beacon Ave S,98178,-122.26317392,47.49886121,3380,10,SEATTLE,3352401300,335240,1300
1277550.99993211,221583.999870777,242,1189,449912,661,School-Junior High/Middle,Washington Middle School,Washington,2101 S Jackson St,98144,-122.30415158,47.59795443,4064,10,SEATTLE,3646100540,364610,0540
1336907.99998428,123256.000004858,243,2174,8613,662,School-High,Kentlake High School,Kentlake,21401 SE Falcon Way,98042,-122.05726567,47.33127883,4492,10,KENT,0421069087,042106,9087
1342969.00000136,264792.000068769,244,806,164591,660,School-Elementary,Laura Ingalls Wilder Elementary School,Wilder,22130 NE 133rd St,98077,-122.04178795,47.71951213,4336,10,LAKE WASHINGTON,2126069015,212606,9015
1342784.00004327,272792.000144854,245,798,568938,660,School-Elementary,East Ridge Elementary School,East Ridge,22150 NE 156th Pl,98077,-122.0430502,47.74143329,4379,10,NORTHSHORE,1626069002,162606,9002
1273847.00012228,236745.000060514,246,826,429525,660,School-Elementary,Bertschi School,Bertschi,2227 10th Ave E,98102,-122.32034852,47.63931538,0,20,SEATTLE,2207500320,220750,0320
1338710.99998719,147669.00006327,247,520,620598,660,School-Elementary,Cedar River Elementary School,Cedar River,22615 Sweeney Rd SE,98038,-122.051554,47.39827654,3937,10,TAHOMA,1622069134,162206,9134
1261745.0000481,196695.000108182,248,6600437,509368,662,School-High,Chief Sealth International High School,Chief Sealth,2600 SW Thistle St ,98126,-122.36619312,47.52888891,3096,10,SEATTLE,3624039032,362403,9032
1270851.99987869,215864.000155941,249,6600703,765619,664,School-Alternative,Seattle Skills Center,Skills Center,2445 3rd Ave S,98134,-122.33084705,47.58192189,,10,SEATTLE,7666205235,766620,5235
1311123.0000452,190440.000151023,250,715,732782,660,School-Elementary,Sierra Heights Elementary School,Sierra Heights,2501 Union Ave NE,98059,-122.16591625,47.51426355,3668,10,RENTON,0423059069,042305,9069
1351076.99986143,213735.000148848,251,2212,2412,661,School-Junior High/Middle,Beaver Lake Middle School,Beaver Lake,25025 SE 32nd St,98029,-122.0056933,47.57990044,4460,10,ISSAQUAH,1124069091,112406,9091
1306815.6740142,275292.683135599,252,247,174576,666,School-K-12,Cedar Park Christian School,Cedar Park Christian,16300 112th Ave NE,98011,-122.18939256,47.74664439,0,20,NORTHSHORE,1726059028,172605,9028
1271873.00013328,165082.000014111,253,6600247,600823,665,School-Other Facility,Transportation-Highline,Transportation,17910 8th Ave S,98148,-122.3227296,47.44278401,0,10,HIGHLINE,3223049003,322304,9003
1305700.82092895,226233.790768027,254,10000023,103991,663,School-College or University,Seattle University Eastside Center,Seattle U Eastside ,200 112th Ave NE,98004,-122.19040776,47.61211727,0,20,BELLEVUE,2543200070,254320,0070
1310759.00011702,149726.999884278,255,579,8590,660,School-Elementary,Sunrise Elementary School,Sunrise,22300 132nd Ave SE,98042,-122.16453991,47.40264876,4420,10,KENT,1022059180,102205,9180
1349739.99991077,206308.999909014,256,6600633,77692,661,School-Junior High/Middle,Pacific Cascade Middle School,Pacific Cascade,24635 SE Issaquah-Fall City Rd,98029,-122.01064959,47.55948853,5200,10,ISSAQUAH,1424069019,142406,9019
1375921.00004211,209587.999912694,257,6600301,2355,661,School-Junior High/Middle,Chief Kanim Middle School,Chief Kanim,32627 SE Redmond Fall City Rd  ,98024,-121.90480897,47.56952548,4397,10,SNOQUALMIE VALLEY,1524079112,152407,9112
1298936.00014102,137348.000036016,258,397,668321,660,School-Elementary,Scenic Hill Elementary School,Scenic Hill,26025 Woodland Way S,98030,-122.21137798,47.36814681,3389,10,KENT,3022059030,302205,9030
1258790.0000526,189752.999884605,259,1192,511295,660,School-Elementary,Arbor Heights Elementary School,Arbor Heights,3701 SW 104th St,98146,-122.37758799,47.50969933,2730,10,SEATTLE,2518400005,251840,0005
1281228.00012402,168734.999925941,260,1326,401620,660,School-Elementary,McMicken Heights Elementary School,McMicken,3708 S 168th St,98188,-122.28521079,47.45328686,2734,10,HIGHLINE,2723049028,272304,9028
1373945.0000571,236208.000150263,261,273,158,661,School-Junior High/Middle,Tolt Middle School,Tolt,3740 Tolt Ave,98014,-121.91432707,47.64242113,4318,10,RIVERVIEW,2125079033,212507,9033
1266474.00010453,238462.999905348,262,932,422342,664,School-Alternative,Seattle Country Day School,Seattle Country Day,2619 4th Ave N,98109,-122.35038725,47.64362992,0,20,SEATTLE,1929300110,192930,0110
1332599.00302486,115612.855514273,263,6600689,40,662,School-High,Rainier Christian Middle and High School,Rainier Christian,19830 SE 328th Pl,98092,-122.07414235,47.31013892,,20,KENT,1721069021,172106,9021
1281147.14595503,135171.245859355,264,441,8606,661,School-Junior High/Middle,Evergreen Middle School,Evergreen,26812 40th Ave S,98032,-122.28298275,47.36128453,3431,10,FEDERAL WAY,2722049152,272204,9152
1357803.99985886,274663.000011772,265,276,193,660,School-Elementary,Cherry Valley Elementary School,Cherry Valley,26701 NE Cherry Valley Rd,98019,-121.98212477,47.74719287,3101,10,RIVERVIEW,1326069028,132606,9028
1321113.00007828,234108.00008519,266,10000021,98990,660,School-Elementary,Eton School,Eton,2701 BelRed Rd,98008,-122.12846975,47.63442906,0,20,BELLEVUE,0673100096,067310,0096
1280136.00001144,274175.000003517,267,1219,16167,660,School-Elementary,Briarcrest Elementary School,Briarcrest,2715 NE 158th St,98155,-122.29773147,47.74224075,0,10,SHORELINE,1199100005,119910,0005
1313573.00006644,131850.999875188,268,567,660039,660,School-Elementary,Horizon Elementary School,Horizon,27641 144th Ave SE,98042,-122.15194235,47.35378209,4345,10,KENT,3422059036,342205,9036
1279906.00014336,285997.999979526,269,6600710,16158,664,School-Alternative,Cascade K-8 Community School,Cascade K-8,2800 NE 200th St,98155,-122.29958147,47.77463541,,10,SHORELINE,2636900086,263690,0086
1279173.99996693,204882.000138357,270,908,499919,660,School-Elementary,Dearborn Park International Elementary School,Dearborn Park Intl,2820 S Orcas St,98108,-122.296288,47.55225915,3803,10,SEATTLE,7857000410,785700,0410
1283886.01613344,200956.483383104,271,6600225,833906,660,School-Elementary,Martin Luther King Jr. Elementary School,MLK Jr.,6725 45th Ave S,98118,-122.27691176,47.5417432,0,10,SEATTLE,3812400550,381240,0550
1346632.99989119,69933.0000237674,272,6600147,340,660,School-Elementary,Sunrise Elementary School,Sunrise,899 Osceola St S,98022,-122.0147529,47.18553143,4289,10,ENUMCLAW,2620069019,262006,9019
1274443.20102961,226276.686023444,273,10000018,448115,664,School-Alternative,Middle College High School at Seattle University,Middle College at Seattle U,901 12th Ave,98122,-122.31711206,47.61065349,0,10,SEATTLE,2254500555,225450,0555
1311397.00015336,253406.999872938,274,478,30825,660,School-Elementary,Mark Twain Elementary School,Twain,9525 130th Ave NE,98033,-122.16922975,47.68687405,0,10,LAKE WASHINGTON,3888100027,388810,0027
1308315.00008377,183064.000139266,275,714,580177,663,School-College or University,Renton Technical College,Renton Tech,3000 NE 4th St,98056,-122.17675641,47.49391155,5955,10,RENTON,7227800450,722780,0450
1344550.56376736,213924.526016518,276,362,12223,661,School-Junior High/Middle,Pine Lake Middle School,Pine Lake,3095 Issaquah-Pine Lake Rd SE,98075,-122.03214512,47.58014439,3879,10,ISSAQUAH,1024069010,102406,9010
1347364.0000696,70596.000010103,277,310,208,660,School-Elementary,Southwood Elementary School,Southwood,3240 McDougall Ave,98022,-122.01185457,47.18737949,3739,10,ENUMCLAW,2620069019,262006,9019
1253273.99992977,116716.999959514,278,2332,2383,660,School-Elementary,Green Gables Elementary School,Green Gables,32607 47th Ave SW,98023,-122.39391117,47.30920817,4426,10,FEDERAL WAY,1421039084,142103,9084
1263494.00015903,240710.000004515,279,1056,757267,663,School-College or University,Seattle Pacific University,Seattle Pacific U,3307 3rd Ave W,98119,-122.36265478,47.64962717,0,20,SEATTLE,8900000555,890000,0555
1378067.00001518,209566.999954686,280,333,2357,660,School-Elementary,Fall City Elementary School,Fall City ,33314 SE 42nd St,98024,-121.89611543,47.56954948,2222,10,SNOQUALMIE VALLEY,0943100020,094310,0020
1279228.99985693,104799.999843433,281,6600140,636214,661,School-Junior High/Middle,Sequoyah Middle School,Sequoyah,3425 S 360th St  ,98001,-122.28840425,47.27793822,5029,10,FEDERAL WAY,2721049012,272104,9012
1381453.00013295,193308.999990433,282,6600712,1141646,660,School-Elementary,Timber Ridge Elementary School,Timber Ridge,34412 SE Swenson Dr,98065,-121.8815036,47.52510975,,10,SNOQUALMIE VALLEY,3524079024,352407,9024
1305944.99990253,108574.999839351,283,36,58,660,School-Elementary,Chinook Elementary School,Chinook,3502 Auburn Way S,98092,-122.18106626,47.28961897,3439,10,AUBURN,2121059038,212105,9038
1281869.00015436,256389.000142515,284,971,12394,660,School-Elementary,Our Lady of the Lake Catholic School,Our Lady of the Lake,3520 NE 89th St,98115,-122.28932183,47.69357971,0,20,SEATTLE,6844701005,684470,1005
1278008.00000235,105731.999947935,285,13,634289,660,School-Elementary,Lakeland Elementary School,Lakeland,35827 32nd Ave S,98001,-122.29339316,47.28042943,2841,10,FEDERAL WAY,2821049095,282104,9095
1272778.99996169,104751.999939442,286,2289,842738,662,School-High,Todd Beamer High School,Beamer,35999 16th Ave S,98003,-122.31437841,47.27746942,4570,10,FEDERAL WAY,2921049025,292104,9025
1307822.00008552,205651.999910682,287,181,12178,660,School-Elementary,Newport Heights Elementary School,Newport Heights,5225 119th Ave SE,98006,-122.18034919,47.55580331,3437,10,BELLEVUE,6071201005,607120,1005
1266882.99994269,242514.000005439,288,840,12312,660,School-Elementary,B.F. Day Elementary School,Day,3921 Linden Ave N,98103,-122.349052,47.65475562,3717,10,SEATTLE,1931301145,193130,1145
1282664.9998747,202649.000011191,289,1039,486395,661,School-Junior High/Middle,Aki Kurose Middle School,Aki Kurose,3928 S Graham St,98118,-122.2819834,47.54631951,3774,10,SEATTLE,3332501090,333250,1090
1299550.99989527,178779.999849021,290,683,12193,662,School-High,Renton High School,Renton,400 S 2nd St,98057,-122.21189082,47.48174404,2475,10,RENTON,0007200060,000720,0060
1277665.00003219,242488.000057444,291,2746,13871,663,School-College or University,University of Washington,UW,4001 E Stevens Way NE,98195,-122.30530983,47.65525802,0,10,SEATTLE,1625049001,162504,9001
1292743.89179036,115583.990414515,292,17,39,662,School-High,West Auburn High School,West Auburn,401 W Main St,98001,-122.2347618,47.30818456,2702,10,AUBURN,4463400005,446340,0005
1256690.63975002,243431.40237011,293,1376,429769,660,School-Elementary,Lawton Elementary School,Lawton,4000 27th Ave W,98199,-122.39047451,47.65671242,2183,10,SEATTLE,0369000400,036900,0400
1263319.99985085,192317.000005931,294,885,508163,660,School-Elementary,Holy Family Bilingual Catholic School,Holy Family,9615 20th Ave SW,98106,-122.35946787,47.51697483,0,20,SEATTLE,3004800005,300480,0005
1285571.99996619,245427.000084937,295,880,12406,664,School-Alternative,Villa Academy School,Villa Academy,5001 NE 50th St,98105,-122.27345546,47.66372386,0,20,SEATTLE,1025049038,102504,9038
1298035.99997252,206549.00008519,296,2133,185598,662,School-High,Northwest Yeshiva High School,NW Yeshiva,5017 90th Ave SE,98040,-122.22003967,47.55778564,0,20,MERCER ISLAND,4351300740,435130,0740
1274051.83042127,265898.209142432,297,6600653,336421,661,School-Junior High/Middle,Billings Middle School,Billings,12351 8th Ave NE,98125,-122.32180456,47.71923436,0,20,SEATTLE,6413600296,641360,0296
1326773.99991111,244904.000146687,298,6600647,367265,663,School-College or University,Lake Washington Institute of Technology Redmond Campus,Lake Washington IT,6505 176th Ave NE,98052,-122.10623634,47.66428093,0,10,LAKE WASHINGTON,1225059043,122505,9043
1297093.99988802,119217.999878764,299,47,715263,664,School-Alternative,Green River Montessori School,Green River Montessori,922 12th St NE,98002,-122.21749424,47.31836125,0,20,AUBURN,3339900900,333990,0900
1263683.00010911,200566.999910101,300,890,479979,660,School-Elementary,Sanislo Elementary School,Sanislo,1812 SW Myrtle St,98106,-122.35866076,47.53960743,3665,10,SEATTLE,3438502560,343850,2560
1309489.00003237,123293.999928847,301,10000075,,660,School-Elementary,Willow Crest Elementary,Willow Crest,13002 SE 304th St,98092,-122.16781697,47.33013382,0,10,AUBURN,0421059015,042105,9015
1269175.22403277,244352.301775023,302,10001710,,662,School-High,Lincoln High School,Lincoln,4400 Interlake Ave N,98103,-122.33989903,47.6599177,0,10,SEATTLE,7821200700,782120,0700
1409554.00003318,176568.000007942,303,596,12129,660,School-Elementary,Opstad Elementary School,Opstad,1345 Stilson Ave SE,98045,-121.7669531,47.48021026,4308,10,SNOQUALMIE VALLEY,1523089156,152308,9156
1267733.9998811,170369.999936774,304,1263,754898,661,School-Junior High/Middle,Sylvester Middle School,Sylvester,16222 Sylvester Rd SW,98166,-122.33987049,47.45705742,2927,10,HIGHLINE,3023049007,302304,9007
1310074.99984461,167554.999989361,305,740,898496,660,School-Elementary,Renton Park Elementary School,Renton Park,16828 128th Ave SE,98058,-122.16855012,47.45148418,3521,10,RENTON,2823059084,282305,9084
1325390.48397736,279271.217173263,306,790,21198,660,School-Elementary,Bellevue Christian Mack Elementary School,Mack,18250 168th Pl NE,98072,-122.11417098,47.75842215,0,20,NORTHSHORE,1226059021,122605,9021
1350332.0000391,251671.000064105,307,6600721,1243530,660,School-Elementary,Ella Baker Elementary School,Baker,9595 Eastridge Dr NE,98053,-122.01106311,47.68385833,5512,10,LAKE WASHINGTON,7203102310,720310,2310
1271681.99985911,165296.999912187,308,6600246,755534,665,School-Other Facility,Highline School Facility Services,Facility Services,17810 8th Ave S,98148,-122.32351811,47.44336318,0,10,HIGHLINE,3223049003,322304,9003
1327585.99992752,230465.000153348,309,213,70,660,School-Elementary,Bennett Elementary School,Bennett,17900 NE 16th St,98008,-122.10197573,47.62473872,3705,10,BELLEVUE,2525059102,252505,9102
1274542.00004461,151032.999896944,310,1369,384842,664,School-Alternative,St. Philomena Catholic School,St. Philomena,1815 S 220th St,98198,-122.31085632,47.40441705,0,20,HIGHLINE,0576000260,057600,0260
1305335.00013827,161556.999846265,311,6600552,767285,660,School-Elementary,Benson Hill Elementary School,Benson Hill,18665 116th Ave SE,98058,-122.1872785,47.43481626,3587,10,RENTON,3223059149,322305,9149
1298343.00001469,284082.999872521,312,265,111,660,School-Elementary,Westhill Elementary School,Westhill,19515 88th Ave NE,98011,-122.2244716,47.77032453,3287,10,NORTHSHORE,0626059012,062605,9012
1297696.99999435,108260.000141278,313,62,51,660,School-Elementary,Pioneer Elementary School,Pioneer,2301 M St SE,98002,-122.21427117,47.28835477,3227,10,AUBURN,1921059054,192105,9054
1254142.00016227,238399.000033349,314,1371,758840,664,School-Alternative,Catharine Blaine K-8 School,Blaine,2550 34th Ave W,98199,-122.40039819,47.64277719,2838,10,SEATTLE,2225039016,222503,9016
1305374.00006028,131357.999876931,315,393,8610,660,School-Elementary,Pine Tree Elementary School,Pine Tree,27825 118th Ave SE,98030,-122.18497846,47.35204088,3593,10,KENT,3322059125,332205,9125
1281119.03118186,131646.217804432,316,16,28,660,School-Elementary,Valhalla Elementary School,Valhalla,27847 42nd Ave S,98001,-122.28282835,47.35162101,3582,10,FEDERAL WAY,7967600210,796760,0210
1359165.0000896,217742.000008851,317,6600604,89021,660,School-Elementary,Cascade Ridge Elementary School,Cascade Ridge,2020 Trossachs Blvd SE,98075,-121.97316723,47.59121742,4565,10,ISSAQUAH,8691301385,869130,1385
1306772.99988694,145620.999894187,318,384,8581,661,School-Junior High/Middle,Meridian Middle School,Meridian,23480 120th Ave SE,98031,-122.18034255,47.39120383,3233,10,KENT,1622059032,162205,9032
1260459.57512553,248724.314356431,319,902,751094,664,School-Alternative,St. Alphonsus School,St. Alphonsus,5816 15th Ave NW,98107,-122.37561481,47.67142795,0,20,SEATTLE,2767900390,276790,0390
1276750.9998917,125925.999914184,320,6600142,695180,666,School-K-12,Holy Innocents School of the Northwest,Holy Innocents,2530 S 298th St,98003,-122.30000612,47.33571514,0,20,FEDERAL WAY,7683800032,768380,0032
1321759.0000986,137637.000114188,321,571,662995,662,School-High,Kentwood High School,Kentwood,25800 164th Ave SE,98042,-122.11931322,47.37002169,4128,10,KENT,2522059006,252205,9006
1261796.99994411,197591.999954611,322,6600702,1005283,661,School-Junior High/Middle,Denny International Middle School,Denny Intl,2601 SW Kenyon St,98126,-122.36605498,47.53135038,,10,SEATTLE,3624039032,362403,9032
1254493.34788477,240383.574476272,323,1379,757610,660,School-Elementary,Our Lady of Fatima Parish School,Our Lady of Fatima,3301 W Dravus St,98199,-122.39913698,47.64823635,0,20,SEATTLE,6822100520,682210,0520
1264078.99997327,110225.000148267,324,328,2391,660,School-Elementary,Sherwood Forest Elementary School,Sherwood Forest,34600 12th Ave SW,98023,-122.34985205,47.2920062,4374,10,FEDERAL WAY,4159200004,415920,0004
1281974.68301386,228851.600821108,325,1063,924116,660,School-Elementary,Epiphany School,Epiphany,3611 E Denny Way,98122,-122.2867814,47.61810527,0,20,SEATTLE,9103000660,910300,0660
1347599.99992569,231596.999857858,326,648,12218,660,School-Elementary,Christa McAuliffe Elementary School,McAuliffe,23823 NE 22nd St,98074,-122.02089585,47.62871711,0,10,LAKE WASHINGTON,2725069102,272506,9102
1278804.00005077,272077.999932438,327,1241,16168,666,School-K-12,Shoreline Christian School,Shoreline Christian,2400 NE 147th St,98155,-122.30298147,47.73642333,0,20,SHORELINE,1626049049,162604,9049
1278433.00013661,225358.999866694,328,2352,433942,664,School-Alternative,Nova High School,Nova,2410 E Cherry St,98122,-122.30086911,47.60834783,3868,10,SEATTLE,0519000290,051900,0290
1305587.99996036,233542.999902859,329,114,65,660,School-Elementary,Bellevue Montessori School,Bellevue Montessori,2411 112th Ave NE,98004,-122.1913879,47.63214681,0,20,BELLEVUE,2025059182,202505,9182
1348438.99988811,227917.999998018,330,652,12221,661,School-Junior High/Middle,Inglewood Middle School,Inglewood,24120 NE 8th St,98074,-122.01726422,47.61866779,4386,10,LAKE WASHINGTON,2725069065,272506,9065
1340242.28334194,142524.774787441,331,527,9261,660,School-Elementary,Lake Wilderness Elementary School,Lake Wilderness,24216 Witte Rd SE,98038,-122.04504512,47.38424175,3286,10,TAHOMA,2122069054,212206,9054
1257272.64153877,254178.672214106,332,1011,12292,660,School-Elementary,Loyal Heights Elementary School,Loyal Heights,7735 25th Ave NW,98117,-122.38899478,47.68620215,0,10,SEATTLE,4443801580,444380,1580
1326595.99993902,267946.999992356,333,642,21190,660,School-Elementary,Sunrise Elementary School,Sunrise,14075 172nd Ave NE,98052,-122.10850779,47.7274362,4187,10,NORTHSHORE,8121201010,812120,1010
1282212.00012453,162095.000082597,334,1319,12231,661,School-Junior High/Middle,Chinook Middle School,Chinook,18650 42nd Ave S,98188,-122.28072968,47.43513742,3098,10,HIGHLINE,3423049044,342304,9044
1300705.99988186,232168.000028193,335,119,163,661,School-Junior High/Middle,Chinook Middle School,Chinook,2001 98th Ave NE,98004,-122.21108511,47.62814001,3338,10,BELLEVUE,8086000205,808600,0205
1346251.99999702,223830.999969944,336,175,532317,662,School-High,Eastside Catholic High School,Eastside Catholic,232 228th Ave SE,98074,-122.02587406,47.60737209,0,20,LAKE WASHINGTON,3425069091,342506,9091
1351275.00012161,138185.000002444,337,6600599,667199,661,School-Junior High/Middle,Summit Trail Middle School,Summit Trail,25600 SE Summit Landsburg Rd,98051,-122.00025093,47.37281307,4556,10,TAHOMA,2622069047,262206,9047
1346028.00011694,137929.999856263,338,6600596,663049,660,School-Elementary,Rock Creek Elementary School,Rock Creek,25700 Maple Valley-Black Diamond Rd SE,98038,-122.0214075,47.37189404,4415,10,TAHOMA,2722069056,272206,9056
1345827.99986078,137630.000128195,339,6600045,860805,665,School-Other Facility,Administration Center-Tahoma,Admin,25720 Maple Valley-Black Diamond Rd SE,98038,-122.02219583,47.37106322,0,10,TAHOMA,2722069056,272206,9056
1355325.99989361,210210.999979019,340,6600350,2413,660,School-Elementary,Endeavor Elementary School,Endeavor,26205 SE Issaquah Fall City Rd,98029,-121.98826539,47.57041663,4493,10,ISSAQUAH,1324069062,132406,9062
1280153.08954419,213659.133502692,341,1173,925881,662,School-High,Franklin High School,Franklin,3013 S Mount Baker Blvd,98144,-122.29299787,47.57636821,2182,10,SEATTLE,5700000430,570000,0430
1277681.00000019,102331.999858186,342,94,26,660,School-Elementary,Rainier View Elementary School,Rainier View,3015 S 368th St,98003,-122.29445026,47.27109312,4422,10,FEDERAL WAY,3321049048,332104,9048
1273879.00005828,120344.999921352,343,6600493,862856,665,School-Other Facility,Administrative Building-Federal Way,Admin,31405 18th Ave S,98003,-122.31115401,47.32026718,0,10,FEDERAL WAY,0921049233,092104,9233
1345377.0001066,213980.999984935,344,366,12225,660,School-Elementary,Sunny Hills Elementary School,Sunny Hills,3200 Issaquah-Pine Lake Rd SE,98075,-122.0288006,47.58033443,3386,10,ISSAQUAH,1024069041,102406,9041
1327855.00004569,134015.000140354,345,569,170,660,School-Elementary,Jenkins Creek Elementary School,Jenkins Creek,26915 186th Ave SE,98042,-122.09447714,47.36036991,4301,10,KENT,3022069029,302206,9029
1306944.99987103,183665.999919519,346,1302,586328,660,School-Elementary,Highlands Elementary School,Highlands,2720 NE 7th St,98056,-122.18233989,47.49549599,2640,10,RENTON,7227502510,722750,2510
1261087.00005178,185706.000104606,347,1203,134,660,School-Elementary,Shorewood Elementary School,Shorewood,2725 SW 116th St,98146,-122.36796918,47.49873268,2842,10,HIGHLINE,1842000190,184200,0190
1302710.00013894,131883.000139266,348,6600277,669375,660,School-Elementary,Meadow Ridge Elementary School,Meadow Ridge,27710 108th Ave SE,98030,-122.19576093,47.35335118,4465,10,KENT,3222059015,322205,9015
1259792.00001711,119394.999852851,349,319,2380,662,School-High,Decatur High School,Decatur,2800 SW 320th St,98023,-122.36785927,47.3169076,3766,10,FEDERAL WAY,1221039034,122103,9034
1307491.00009136,234935.0000716,350,168,144130,660,School-Elementary,The Little School,The Little,2812 116th Ave NE,98004,-122.18377003,47.63605416,0,20,BELLEVUE,2125059046,212505,9046
1329719.99992462,128241.999875352,351,566,699051,660,School-Elementary,Grass Lake Elementary School,Grass Lake,28700 191st Pl SE,98042,-122.08657427,47.34462898,3708,10,KENT,3122069056,312206,9056
1308557.99992585,127632.000111103,352,2335,681537,662,School-High,Auburn Mountainview High School,Mountainview,28900 124th Ave SE,98092,-122.17187468,47.34198023,5037,10,AUBURN,0421059051,042105,9051
1365035.0001606,270338.000131607,353,275,192,662,School-High,Cedarcrest High School,Cedarcrest,29000 NE 150th St,98019,-121.9524801,47.73562933,3524,10,RIVERVIEW,1826079013,182607,9013
1309501.00000836,126922.999888688,354,6600684,773630,660,School-Elementary,Arthur Jacobsen Elementary School,Jacobsen,29205 132nd Ave SE,98092,-122.16802231,47.3400817,,10,AUBURN,0421059057,042105,9057
1274037.00007036,258227.000075445,355,970,252771,660,School-Elementary,Olympic View Elementary School,Olympic View,504 NE 95th St,98115,-122.32126237,47.69820704,2256,10,SEATTLE,5100404840,510040,4840
1284211.06207128,205706.120209277,356,6600394,491289,664,School-Alternative,Orca K-8 School,Orca,5215 46th Ave S,98118,-122.27595637,47.55477871,0,10,SEATTLE,1704900242,170490,0242
1341771.00010078,198179.000092939,357,6600362,2416,665,School-Other Facility,Administrative Building-Issaquah,Admin,565 NW Holly St,98027,-122.04240365,47.53686422,0,10,ISSAQUAH,2824069012,282406,9012
1324069.00007178,202169.999984935,358,6600718,771055,664,School-Alternative,Open Window School,Open Window,6128 168th Pl SE,98006,-122.11432633,47.54701915,,20,ISSAQUAH,2424059043,242405,9043
1292731.00008386,185494.999870434,359,1308,12267,660,School-Elementary,Lakeridge Elementary School,Lakeridge,7400 S 115th St,98178,-122.23996295,47.49981189,2929,10,RENTON,1223049096,122304,9096
1274807.99984069,256776.000024691,360,850,266898,660,School-Elementary,The Perkins School,Perkins,9005 Roosevelt Way NE,98115,-122.31801834,47.6942707,0,20,SEATTLE,5100402704,510040,2704
1277972.59193669,193405.300322771,361,2361,1239739,664,School-Alternative,Raisbeck Aviation High School,Raisbeck Aviation,9229 East Marginal Way S,98108,-122.30026655,47.52073887,0,10,HIGHLINE,5729800020,572980,0020
1277184.00000994,133446.999964014,362,89,2362,660,School-Elementary,Mark Twain Elementary School,Twain,2450 S Star Lake Rd,98003,-122.29883768,47.35635265,3627,10,FEDERAL WAY,7204800010,720480,0010
1295744.99996136,197351.000108525,363,544,9282,660,School-Elementary,Lakeridge Elementary School,Lakeridge,8215 SE 78th St,98040,-122.22864135,47.53246002,2981,10,MERCER ISLAND,2524049015,252404,9015
1348135.99983793,71010.999836266,364,6600048,861125,665,School-Other Facility,Enumclaw Administration,Enumclaw Admin,2929 McDougall Ave,98022,-122.00877593,47.1885494,0,10,ENUMCLAW,2620069016,262006,9016
1297306.00012019,176139.999879688,365,6600377,580032,665,School-Other Facility,Administration Center-Renton,Admin,300 SW 7th St,98057,-122.22077583,47.4743971,0,10,RENTON,1823059253,182305,9253
1305074.00000411,122376.00012444,366,63,25,661,School-Junior High/Middle,Rainier Middle School,Rainier,30620 116th Ave SE,98092,-122.18555199,47.3274063,4385,10,AUBURN,0921059123,092105,9123
1307574.99992336,121453.000001937,367,54,24,660,School-Elementary,Lea Hill Elementary School,Lea Hill,30908 124th Ave SE,98092,-122.17540428,47.3249963,3525,10,AUBURN,0921059005,092105,9005
1375561.00010595,239803.999848023,368,6600696,1008913,664,School-Alternative,Riverview Learning Center,Riverview,32302 NE 50th St,98014,-121.90797596,47.6523406,,10,RIVERVIEW,1625079060,162507,9060
1281055.00014195,248354.000136435,369,869,349397,660,School-Elementary,Bryant Elementary School,Bryant ,3311 NE 60th St,98115,-122.29200824,47.67151359,0,10,SEATTLE,8827900180,882790,0180
1311816.99996953,105203.000021681,370,32,54,660,School-Elementary,Buena Vista Seventh-day Adventist School,Buena Vista SDA,3320 Academy Dr SE,98092,-122.15717651,47.28065549,0,20,AUBURN,2721059033,272105,9033
1299258.00015318,177569.999972433,371,688,12194,660,School-Elementary,St. Anthony Elementary School,St. Anthony,336 Shattuck Ave S,98057,-122.21298784,47.47841298,0,20,RENTON,7841300035,784130,0035
1274330.00014052,112525.000141442,372,1348,871083,666,School-K-12,Pacific Christian Academy,Pacific Christian,33645 20th Ave S,98003,-122.30873183,47.29885655,0,20,FEDERAL WAY,2121049004,212104,9004
1281543.00015019,230612.999857351,373,951,838011,666,School-K-12,The Bush School,Bush,3400 E Harrison St,98112,-122.28866644,47.6229109,0,20,SEATTLE,6600000120,660000,0120
1259484.99997494,200381.999952018,374,1116,493520,660,School-Elementary,Our Lady of Guadalupe Catholic School,Our Lady of Guadalupe,3401 SW Myrtle St,98126,-122.37563816,47.53887101,0,20,SEATTLE,8123100005,812310,0005
1256120.00014327,212893.999862358,375,996,459130,661,School-Junior High/Middle,Madison Middle School,Madison,3429 45th Ave SW,98116,-122.39028315,47.57297989,2435,10,SEATTLE,9278300010,927830,0010
1268173.99998535,110712.000158519,376,93,2390,660,School-Elementary,Panther Lake Elementary School,Panther Lake,34424 1st Ave S,98003,-122.33339301,47.29356102,3329,10,FEDERAL WAY,2021049110,202104,9110
1270981.99994677,109804.00000602,377,6600546,711102,664,School-Alternative,Federal Way Public Academy,FedWay Public Academy,34620 9th Ave S,98003,-122.32200946,47.29122168,1789,10,FEDERAL WAY,9264800050,926480,0050
1266218.99995835,108445.000099361,378,6600525,2392,660,School-Elementary,Enterprise Elementary School,Enterprise,35101 5th Ave SW,98023,-122.34109029,47.28724259,4470,10,FEDERAL WAY,4159200704,415920,0704
1271280.00000694,128320.00004743,379,92,2363,660,School-Elementary,Nautilus K-8 School,Nautilus K-8,1000 S 289th St,98003,-122.32225203,47.34198906,3625,10,FEDERAL WAY,0521049005,052104,9005
1344873.00013036,218762.999935359,380,6600693,12220,664,School-Alternative,Renaissance School of Art and Reasoning,Renaissance,400 228th Ave NE,98074,-122.03114392,47.59342118,,10,LAKE WASHINGTON,3425069021,342506,9021
1406571.0000937,181650.000014514,381,594,903935,660,School-Elementary,North Bend Elementary School,North Bend,400 E 3rd St,98045,-121.77926792,47.49404147,2287,10,SNOQUALMIE VALLEY,1023089192,102308,9192
1277664.0000342,242487.000059441,382,1346,13871,663,School-College or University,University of Washington-HUB,UW-HUB,4001 E Stevens Way NE,98195,-122.30531381,47.65525523,0,10,SEATTLE,1625049001,162504,9001
1266449.00015453,230888.999961525,383,6600224,441135,665,School-Other Facility,Stadium/Athletic Office,Stadium/Athletic Office,401 5th Ave N,98109,-122.34988329,47.62286856,0,10,SEATTLE,1988200640,198820,0640
1283121.99994494,261287.999858931,384,1086,273294,660,School-Elementary,John Rogers Elementary School,Rogers ,4030 NE 109th St,98125,-122.28460993,47.7070727,2975,10,SEATTLE,2726049114,272604,9114
1282452.99997061,209798.000148848,385,2327,474750,660,School-Elementary,Hawthorne Elementary School,Hawthorne,4100 39th Ave S,98118,-122.28338696,47.56590402,4248,10,SEATTLE,7950302375,795030,2375
1273069.21821328,243340.73621285,386,6600607,834753,664,School-Alternative,John Stanford International Elementary School,Stanford Intl,4057 5th Ave NE,98105,-122.32402099,47.65735288,2081,10,SEATTLE,4206901020,420690,1020
1338061.99997286,246126.999997273,387,650,12140,661,School-Junior High/Middle,Evergreen Middle School,Evergreen,6900 208th Ave NE,98053,-122.06051161,47.6681359,4148,10,LAKE WASHINGTON,0825069008,082506,9008
1303508.90963036,97229.6478581876,388,10000066,1340665,660,School-Elementary,Bowman Creek Elementary School,Bowman Creek,5701 Kersey Way SE,98092,-122.19007459,47.25840358,0,10,AUBURN,3221059058,322105,9058
1270877.8124911,157507.254664943,389,10000080,384279,664,School-Alternative,Maritime High School,Maritime,615 S 200th St,98198,-122.32615681,47.42196899,0,10,HIGHLINE,7893206625,789320,6625
1345761.74933711,209127.029049858,390,10000081,1433876,660,School-Elementary,Cedar Trails Elementary,Cedar Trails,4399 Issaquah-Pine Lake Rd SE,98075,-122.02693694,47.56704527,0,10,ISSAQUAH,1524069026,152406,9026
1302082.08046302,180865.932356939,391,10000089,1261082,660,School-Elementary,Sartori Elementary School,Sartori,332 Park Ave N,98057,-122.20180656,47.48758551,0,10,RENTON,7224000580,722400,0580
1256042.1180812,237568.302875847,392,10000093,425920,660,School-Elementary,Magnolia Elementary School,Magnolia,2418 28th Ave W,98199,-122.39262352,47.6406061,0,10,SEATTLE,0269001275,026900,1275
1303260.6414261,248439.765056774,393,10000096,42367,664,School-Alternative,Leadership Preparatory Academy,Leadership Prep,308 4th Ave S,98033,-122.20189981,47.67286669,0,20,LAKE WASHINGTON,2120200005,212020,0005
1310538.99990086,223198.999921605,394,2156,83,664,School-Alternative,International School,International,445 128th Ave SE,98005,-122.17058205,47.60403083,3522,10,BELLEVUE,3325059117,332505,9117
1299591.00014336,174153.999914691,395,2320,597634,663,School-College or University,City University,City University,555 S Renton Village Pl,98057,-122.21139417,47.46906591,0,10,RENTON,7231600542,723160,0542
1260855.9998576,190989.000037268,396,6600488,528088,661,School-Junior High/Middle,Explorer West Middle School,Exlplorer West,10015 28th Ave SW,98146,-122.36932994,47.51320047,0,20,HIGHLINE,0123039045,012303,9045
1302042.0001626,178576.99992694,397,6600652,525497,666,School-K-12,Amazing Grace Christian School,Amazing Grace,10056 Renton Ave S,98178,-122.20180406,47.48130946,0,20,RENTON,0007200050,000720,0050
1264472.99984144,233932.000109106,398,1057,417651,664,School-Alternative,St. Anne School,St. Anne,101 W Lee St,98119,-122.3581389,47.63110226,0,20,SEATTLE,1731800825,173180,0825
1348903.99994236,228239.000012189,399,6600673,1008614,660,School-Elementary,Rachel Carson Elementary School,Carson,1035 244th Ave NE,98074,-122.01539899,47.6195673,5139,10,LAKE WASHINGTON,2725069016,272506,9016
1303857.00014153,223452.000071764,400,112,82,662,School-High,Bellevue High School,Bellevue,10416 SE Wolverine Way,98004,-122.19768189,47.60440285,2701,10,BELLEVUE,0682000005,068200,0005
1510157.99994028,259193.000111938,401,6600330,21149,666,School-K-12,Skykomish K-12 School,Skykomish K-12,105 6th St N,98288,-121.36241865,47.70933842,0,10,SKYKOMISH,5060800005,506080,0005
1304343.00015378,263972.000068352,402,507,42811,662,School-High,Juanita High School,Juanita,10601 NE 132nd St,98034,-122.19862549,47.71549401,3771,10,LAKE WASHINGTON,2926059049,292605,9049
1280637.99999169,261688.000043184,403,1093,12282,662,School-High,Nathan Hale High School,Hale,10750 30th Ave NE,98125,-122.29472798,47.70804026,3479,10,SEATTLE,2826049152,282604,9152
1265415.99992394,188334.00009793,404,1199,12268,660,School-Elementary,Mount View Elementary School,Mount View,10811 12th Ave SW,98146,-122.35066971,47.5061712,2144,10,HIGHLINE,3451000245,345100,0245
1304710.00007594,242004.000041187,405,6600694,8640,664,School-Alternative,Emerson High School,Emerson,10903 NE 53rd St,98033,-122.19555559,47.65529639,,10,LAKE WASHINGTON,1725059195,172505,9195
1296471.00014977,264584.000156686,406,499,8618,660,School-Elementary,Carl Sandburg Elementary School,Sandburg,12801 84th Ave NE,98034,-122.23064351,47.71678424,0,10,LAKE WASHINGTON,3840700025,384070,0025
1296315.00013369,264353.999960527,407,6600012,8618,664,School-Alternative,Discovery Community School,Discovery Community,12801 84th Ave NE,98034,-122.23126017,47.71614604,1658,10,LAKE WASHINGTON,3840700025,384070,0025
1298609.00013886,114845.000094607,408,69,41,664,School-Alternative,Valley Christian School,Valley Christian,1312 2nd St SE,98002,-122.21107206,47.30644924,0,20,AUBURN,2149800171,214980,0171
1282532.0001407,268135.999942437,409,6600697,254353,664,School-Alternative,Cedar Park Elementary School,Cedar Park,3737 NE 135th St,98125,-122.28753131,47.72581248,,10,SEATTLE,1454100350,145410,0350
1255395.88479361,251113.83221519,410,2148,269619,664,School-Alternative,Licton Springs K-8 School,Licton Springs,3015 NW 68th St,98117,-122.39636012,47.67769743,0,10,SEATTLE,3693901110,369390,1110
1257109.00013377,113232.000039771,411,316,2386,660,School-Elementary,Brigadoon Elementary School,Brigadoon,3601 SW 336th St,98023,-122.37817452,47.29986818,3700,10,FEDERAL WAY,2321039003,232103,9003
1269115.00007185,103532.00008285,412,101,2397,664,School-Alternative,Montessori Academy at Spring Valley,Spring Valley,36605 Pacific Hwy S,98003,-122.32903977,47.27393123,0,20,FEDERAL WAY,2921049074,292104,9074
1257477.00005394,209968.000136942,413,1000,464131,662,School-High,Seattle Lutheran High School,Seattle Lutheran,4100 SW Genesee St,98116,-122.38454798,47.56503503,0,20,SEATTLE,0952002655,095200,2655
1297419.59503736,211725.257777274,414,6600342,194254,665,School-Other Facility,Maintenance and Operations,MOT,4140 86th Ave SE,98040,-122.22291413,47.57194353,0,10,MERCER ISLAND,1824059005,182405,9005
1257362.99995385,210109.99985294,415,994,470501,664,School-Alternative,Holy Rosary School,Holy Rosary,4142 42nd Ave SW,98116,-122.38502124,47.56541795,0,20,SEATTLE,0952002500,095200,2500
1297366.9999982,211600.000153765,416,6600343,189376,664,School-Alternative,Crest Learning Center,Crest Learning Center,4150 86th Ave SE,98040,-122.223118,47.57159759,0,10,MERCER ISLAND,1824059005,182405,9005
1293156.99988802,143415.000041097,417,6600671,891662,663,School-College or University,Green River College - Kent Campus,GRC,417 Ramsay Way ,98032,-122.2351398,47.38449059,0,10,KENT,7142000000,714200,0000
1282453.9999686,129181.99996385,418,15,27,662,School-High,Thomas Jefferson High School,Jefferson,4248 S 288th St,98001,-122.27725757,47.34493539,3584,10,FEDERAL WAY,3422049027,342204,9027
1256319.00007336,200949.000130355,419,1164,483969,660,School-Elementary,Gatewood Elementary School,Gatewood,4320 SW Myrtle St,98136,-122.38849945,47.54025048,2139,10,SEATTLE,4315700020,431570,0020
1282114.99999045,122576.000052527,420,10,20,661,School-Junior High/Middle,Kilo Middle School,Kilo,4400 S 308th St,98001,-122.27812457,47.32681096,3701,10,FEDERAL WAY,1021049002,102104,9002
1254728.99997252,119156.000002772,421,331,2379,660,School-Elementary,Twin Lakes Elementary School,Twin Lakes,4400 SW 320th St,98023,-122.38824624,47.31597397,3628,10,FEDERAL WAY,1121039098,112103,9098
1315573.00000344,178740.999927014,422,752,578016,660,School-Elementary,Maplewood Heights Elementary School,Maplewood Heights,130 Jericho Ave SE,98059,-122.14710359,47.48240528,3586,10,RENTON,0847100090,084710,0090
1417700.00014536,172554.000161931,423,6600547,24368,665,School-Other Facility,Camp Waskowitz,Camp Waskowitz,45505 SE 150th St,98045,-121.73382325,47.46947301,0,10,HIGHLINE,2423089040,242308,9040
1283911.00000736,176543.000057936,424,2325,21156,661,School-Junior High/Middle,Showalter Middle School,Showalter,4628 S 144th St,98168,-122.27495943,47.47482688,2564,10,TUKWILA,1523049108,152304,9108
1323399.00009944,207622.999905691,425,347,100,660,School-Elementary,Cougar Ridge Elementary School,Cougar Ridge,4630 167th Ave SE,98006,-122.1174072,47.56193584,4375,10,ISSAQUAH,1324059077,132405,9077
1271264.00003894,245606.000055015,426,2193,334273,660,School-Elementary,The Meridian School,Meridian,4649 Sunnyside Ave N,98103,-122.33152358,47.66346581,0,20,SEATTLE,0825049102,082504,9102
1314008.9998506,206707.000097275,427,178,101,662,School-High,Forest Ridge School of the Sacred Heart,Forest Ridge High,4800 139th Ave SE,98006,-122.15537008,47.55898921,0,20,BELLEVUE,2224059005,222405,9005
1313884.00010061,206755.000001267,428,6600353,242530,661,School-Junior High/Middle,Forest Ridge School of the Sacred Heart,Forest Ridge Middle,4800 139th Ave SE,98006,-122.15587961,47.5591149,0,20,BELLEVUE,2224059005,222405,9005
1284977.99984185,194429.000047028,429,6600334,525468,664,School-Alternative,South Shore K-8 School,South Shore,4800 S Henderson St,98118,-122.27199745,47.52390734,0,10,SEATTLE,2123700250,212370,0250
1269968.00000627,245794.000007108,430,854,12407,664,School-Alternative,St. Benedict Catholic School,St. Benedict,4811 Wallingford Ave N,98103,-122.3367969,47.66391184,0,20,SEATTLE,4083800835,408380,0835
1374760.00006752,239512.000103936,431,269,157,660,School-Elementary,Carnation Elementary School,Carnation,4950 Tolt Ave,98014,-121.91120898,47.65150946,2485,10,RIVERVIEW,1625079060,162507,9060
1310580.00014694,105269.99988769,432,19,787661,662,School-High,Auburn Adventist Academy High School,Auburn Adventist,5000 Auburn Way S,98092,-122.16216372,47.28078071,0,20,AUBURN,2721059042,272105,9042
1315873.0000596,227033.000127599,433,203,114407,661,School-Junior High/Middle,Odle Middle School,Odle,502 143rd Ave NE,98007,-122.14922918,47.61479216,3631,10,BELLEVUE,8839900080,883990,0080
1295756.99993736,116426.999883354,434,6600629,37,665,School-Other Facility,Auburn Adminstrative Annex,Admin Annex,502 4th St NE,98002,-122.22268031,47.31064501,0,10,AUBURN,1821059082,182105,9082
1295557.00000927,110363.99987027,435,50,48,664,School-Alternative,Holy Family Catholic School,Holy Family Catholic,505 17th St SE,98002,-122.22304514,47.29401629,0,20,AUBURN,1921059018,192105,9018
1264932.99990569,240729.99996452,436,10000024,839162,663,School-College or University,Washington Academy of Languages,WA Academy of Languages,521 Wall St,98121,-122.35681934,47.64976022,0,20,SEATTLE,0697000064,069700,0064
1269282.00006594,257186.999858856,437,6600134,269619,661,School-Junior High/Middle,Robert Eagle Staff Middle School,Eagle Staff,1330 N 90th St,98103,-122.34048561,47.69510282,0,10,SEATTLE,3126049064,312604,9064
1267777.00012319,228846.000110522,438,2336,840712,663,School-College or University,City University,City University,521 Wall St,98121,-122.34433662,47.61734038,0,10,BELLEVUE,0697000064,069700,0064
1304733.00002994,242459.000115439,439,10000030,8639,662,School-High,Puget Sound Adventist Academy,Adventist Academy,5320 108th Ave NE,98033,-122.19549495,47.65654469,0,20,LAKE WASHINGTON,1725059198,172505,9198
1297351.00003019,205089.000052437,440,542,9280,660,School-Elementary,Island Park Elementary School,Island Park,5437 Island Crest Way,98040,-122.22270671,47.55374985,3162,10,MERCER ISLAND,1924059040,192405,9040
1274823.00013877,204979.999942347,441,905,490884,664,School-Alternative,Cleveland STEM High School,Cleveland,5511 15th Ave S,98108,-122.3139119,47.55229968,2392,10,SEATTLE,7549802085,754980,2085
1286319.00011261,125062.999999776,442,6600283,692199,660,School-Elementary,Meredith Hill Elementary School,Hill,5830 S 300th St  ,98001,-122.26136263,47.33384289,4480,10,FEDERAL WAY,0221049149,022104,9149
1262889.00005668,203870.999863774,443,882,498220,664,School-Alternative,Louisa Boren STEM K-8 School,Boren,5950 Delridge Way SW,98106,-122.36214035,47.54862035,0,10,SEATTLE,3438501230,343850,1230
1263185.00012086,244564.999840438,444,6600665,1012520,664,School-Alternative,Pacific Crest School,Pacific Crest,600 NW Bright St,98107,-122.36421924,47.66017668,0,20,SEATTLE,4413100071,441310,0071
1265615.99985203,203779.000047773,445,892,786088,663,School-College or University,South Seattle College,South Seattle College,6000 16th Ave SW,98106,-122.35109284,47.54851614,0,10,SEATTLE,6171900005,617190,0005
1318785.96208145,244134.777275681,446,612,568273,660,School-Elementary,Benjamin Rush Elementary School,Rush,6101 152nd Ave NE,98052,-122.13859631,47.66180566,0,10,LAKE WASHINGTON,1125059014,112505,9014
1271564.00009511,180278.000133857,447,1268,152,660,School-Elementary,Cedarhurst Elementary School,Cedarhurst,611 S 132nd St,98168,-122.32516815,47.48441945,2926,10,HIGHLINE,1446403320,144640,3320
1256408.99989335,249561.000019014,448,895,324373,660,School-Elementary,Adams Elementary School,Adams,6110 28th Ave NW,98107,-122.39212076,47.67349756,2138,10,SEATTLE,6658000060,665800,0060
1292531.00015578,111311.999942765,449,6600519,47,665,School-Other Facility,Auburn Maint/Ops/Trans Center,Auburn MOT,615 15th St SW,98001,-122.23530614,47.29646435,0,10,AUBURN,2421049097,242104,9097
1277178.07843386,216514.227858111,450,1191,1268205,660,School-Elementary,Giddens School,Giddens,2120 21st Ave S,98144,-122.30526985,47.58403869,0,20,SEATTLE,1498302175,149830,2175
1296148.00013961,103242.000006691,451,6600534,57,661,School-Junior High/Middle,Mt. Baker Middle School,Mt. Baker,620 37th St SE,98002,-122.22014703,47.27452397,4462,10,AUBURN,3021059031,302105,9031
1294522.00011078,143827.999871269,452,6600644,616921,661,School-Junior High/Middle,Mill Creek Middle School,Mill Creek,620 Central Ave N,98032,-122.22966108,47.38569065,5016,10,KENT,5385600005,538560,0005
1288231.99989553,248999.000158772,453,6600699,834819,660,School-Elementary,Sand Point Elementary School,Sand Point,6208 60th Ave NE,98115,-122.2629317,47.67365068,,10,SEATTLE,1125049134,112504,9134
1314667.99984494,227555.00006786,454,163,98414,660,School-Elementary,Cedar Park Christian Elementary School,Cedar Park Christian,625 140th Ave NE,98005,-122.15415033,47.61616643,0,20,BELLEVUE,3425059003,342505,9003
1289389.99987611,182870.999869108,455,1306,506131,660,School-Elementary,Campbell Hill Elementary School,Campbell Hill,6418 S 124th St,98178,-122.25328073,47.49245126,3034,10,RENTON,1123049102,112304,9102
1271958.99996127,194568.000097111,456,907,528808,660,School-Elementary,Concord International Elementary School,Concord,723 S Concord St,98108,-122.32469068,47.52360899,2199,10,SEATTLE,7885100255,788510,0255
1259320.99997486,199353.000041515,457,6600707,493627,664,School-Alternative,Northwest Montessori - West Seattle,Northwest Montessori,7344 35th Ave SW,98126,-122.37621848,47.53604157,,20,SEATTLE,8122100020,812210,0020
1279078.00015894,252303.000112444,458,969,346015,664,School-Alternative,Northwest Montessori - Wedgwood,Northwest Montessori,7400 25th Ave NE,98115,-122.30033655,47.68223475,0,20,SEATTLE,9215400110,921540,0110
1294812.99985686,235159.999949694,459,6600569,9270,660,School-Elementary,Bellevue Christian Three Points Elementary School,Three Points,7800 NE 28th St  ,98039,-122.23520086,47.63604951,0,20,BELLEVUE,2425049104,242504,9104
1268735.99984561,253970.000059277,460,838,12293,660,School-Elementary,Daniel Bagley Elementary School,Bagley,7821 Stone Ave N,98103,-122.34244619,47.68625583,2450,10,SEATTLE,0625049048,062504,9048
1296480.00013177,115665.000095025,461,23,713208,662,School-High,Auburn High School,Auburn,711 E Main St,98002,-122.21971117,47.30859209,2795,10,AUBURN,1821059082,182105,9082
1311667.99993944,183896.000115693,462,6600410,12187,660,School-Elementary,Honey Dew Elementary School,Honey Dew,800 Union Ave NE,98059,-122.16325367,47.49635175,0,10,RENTON,1023059007,102305,9007
1294999.00014102,228179.000132188,463,139,9272,660,School-Elementary,Medina Elementary School,Medina,8001 NE 8th St,98039,-122.23393134,47.61692363,3436,10,BELLEVUE,3625049008,362504,9008
1296343.00007769,265774.000073269,464,503,8619,661,School-Junior High/Middle,Finn Hill Middle School,Finn Hill,8040 NE 132nd St,98034,-122.2312512,47.72003969,3590,10,LAKE WASHINGTON,2426049128,242604,9128
1311824.99995352,249466.999878943,465,487,8630,660,School-Elementary,Rose Hill Elementary School,Rose Hill,8110 128th Ave NE,98033,-122.16721511,47.67609457,2992,10,LAKE WASHINGTON,0425059017,042505,9017
1270477.99997053,255196.999901861,466,839,331870,662,School-High,Bishop Blanchet High School,Blanchet,8200 Wallingford Ave N,98103,-122.33547228,47.6897124,0,20,SEATTLE,0625049002,062504,9002
1295857.00006545,199254.999909431,467,543,191896,661,School-Junior High/Middle,Islander Middle School,Islander,8225 SE 72nd St,98040,-122.22832773,47.53768453,3219,10,MERCER ISLAND,2524049144,252404,9144
1286495.00008869,194459.999985024,468,1035,530959,662,School-High,Rainier Beach High School,Rainier Beach,8815 Seward Park Ave S,98118,-122.26586105,47.52406988,3327,10,SEATTLE,3524049149,352404,9149
1259616.45771727,198178.166105106,469,1118,501095,660,School-Elementary,Roxhill Elementary School,Roxhill,7740 34th Ave SW,98126,-122.37492737,47.53283765,3157,10,SEATTLE,1932300245,193230,0245
1277395.99991402,258246.000037432,470,977,258793,660,School-Elementary,Sacajawea Elementary School,Sacajawea,9501 20th Ave NE,98115,-122.30762576,47.69843631,3028,10,SEATTLE,8024202285,802420,2285
1288216.99992552,191052.999909267,471,1025,512278,660,School-Elementary,Emerson Elementary School,Emerson,9709 60th Ave S,98118,-122.25863738,47.51481887,2118,10,SEATTLE,7129302300,712930,2300
1270799.99998268,279016.000164017,472,6600102,16164,660,School-Elementary,Meridian Park Elementary School,Meridian Park,17077 Meridian Ave N,98133,-122.33605318,47.7550165,3958,10,SHORELINE,3073500050,307350,0050
1282185.99984844,278646.999917775,473,1220,8646,660,School-Elementary,Brookside Elementary School,Brookside ,17447 37th Ave NE,98155,-122.28974494,47.75460506,3230,10,SHORELINE,1154100565,115410,0565
1273906.00000428,136018.000071347,474,448,387264,660,School-Elementary,Woodmont K-8 School,Woodmont K-8,26454 16th Ave S,98198,-122.31225917,47.36322782,3328,10,FEDERAL WAY,2822049137,282204,9137
1277431.99984202,230212.000003189,475,941,447925,661,School-Junior High/Middle,Meany Middle School,Meany,301 21st Ave E,98112,-122.30530254,47.62159745,0,10,SEATTLE,2825049008,282504,9008
1277931.40697969,177577.55704394,476,10000077,751890,661,School-Junior High/Middle,Glacier Middle School,Glacier,2450 S 142nd St,98168,-122.29921334,47.47735298,0,10,HIGHLINE,3598600006,359860,0006
1336257.99997194,196466.999908015,477,10000082,,661,School-Junior High/Middle,Cougar Mountain Middle School,Cougar Mountain,1929 NW Talus Dr,98027,-122.06460843,47.5319318,0,10,ISSAQUAH,8562730170,856273,0170
1280245.45090802,149361.909407109,478,10000083,12232,660,School-Elementary,River Ridge Elementary School,River Ridge,22420 Military Rd S,98198,-122.28770198,47.40013441,0,10,KENT,1522049125,152204,9125
1325671.02770761,261041.931125358,479,10000084,1252027,660,School-Elementary,Clara Barton Elementary School,Barton,12101 172nd Ave NE,98052,-122.11179963,47.70846663,0,10,LAKE WASHINGTON,2526059045,252605,9045
1345270.51409911,253299.29897286,480,10000087,1237966,661,School-Junior High/Middle,Timberline Middle School,Timberline,9900 Redmond Ridge Dr NE,98053,-122.03171212,47.68810759,0,10,LAKE WASHINGTON,7202420040,720242,0040
1398014.7416157,190599.05002977,481,10000090,21153,661,School-Junior High/Middle,Snoqualmie Middle School,Snoqualmie,9200 Railroad Ave SE,98065,-121.81433673,47.51827961,0,10,SNOQUALMIE VALLEY,3224089089,322408,9089
1270067.98733911,257111.322844848,482,10000091,1228942,660,School-Elementary,Cascadia Elementary School,Cascadia,1700 N 90th St,98124,-122.33728858,47.69493754,0,10,SEATTLE,3517000005,351700,0005
1280845.95200361,196404.457710266,483,10000094,519743,660,School-Elementary,Rising Star Elementary School,Rising Star,8311 Beacon Ave S,98118,-122.28886942,47.52910911,0,10,SEATTLE,7243500160,724350,0160
1279942.67756344,259397.732970193,484,10000095,264588,664,School-Alternative,Seattle Waldorf School - Meadowbrook Campus,Waldorf,2728 NE 100th St,98125,-122.29737471,47.70172644,0,20,SEATTLE,2568300115,256830,0115
1303786.70303802,237761.558722943,485,10000097,35752,664,School-Alternative,Eastside Preparatory School,Eastside Prep,10613 NE 38th Pl,98033,-122.19899592,47.64362276,0,20,LAKE WASHINGTON,4315000180,431500,0180
1304339.31216903,237359.944696769,486,10000098,116691,664,School-Alternative,Chestnut Montessori School,Chestnut,10723 NE 38th Pl,98004,-122.19672567,47.64254877,0,20,BELLEVUE,2025059008,202505,9008
1275774.74265786,247774.208645105,487,10000102,336618,660,School-Elementary,University Cooperative School,University Coop,5601 University Way NE,98105,-122.31339067,47.66964805,0,20,SEATTLE,0825049090,082504,9090
1266099.99986827,195285.999973431,488,884,527409,660,School-Elementary,Highland Park Elementary School,Highland Park,1012 SW Trenton St,98106,-122.34845646,47.5252633,2269,10,SEATTLE,7972603210,797260,3210
1300874.99987194,152447.000021681,489,389,630373,660,School-Elementary,Panther Lake Elementary School,Panther Lake,10200 SE 216th St,98031,-122.20464023,47.40962879,5178,10,KENT,0822059031,082205,9031
1265911.9999162,182100.000098765,490,1204,12387,664,School-Alternative,St. Bernadette Parish School,St. Bernadette,1028 SW 128th St,98146,-122.34816694,47.48911085,0,20,HIGHLINE,3744600925,374460,0925
1297143.00011811,120114.000055268,491,39,32,660,School-Elementary,Dick Scobee Elementary School,Scobee,1031 14th St NE,98002,-122.21736168,47.32081963,2932,10,AUBURN,0001000047,000100,0047
1303649.99989936,246381.000145435,492,475,8634,660,School-Elementary,Lakeview Elementary School,Lakeview,10400 NE 68th St,98033,-122.20017129,47.66724247,3041,10,LAKE WASHINGTON,7882600132,788260,0132
1321653.99998052,221718.999928847,493,226,84,660,School-Elementary,Phantom Lake Elementary School,Phantom Lake,1050 160th Ave SE,98008,-122.12543232,47.60049445,3168,10,BELLEVUE,0224059037,022405,9037
1274237.99999644,231305.00011377,494,830,454290,660,School-Elementary,Lowell Elementary School,Lowell,1058 E Mercer St,98102,-122.31833709,47.62442515,3714,10,SEATTLE,6852700355,685270,0355
1304687.00012194,241758.999875024,495,2743,8640,666,School-K-12,Emerson K-12,Emerson K-12,10903 NE 53rd St,98033,-122.1956313,47.65462371,3855,10,LAKE WASHINGTON,1725059195,172505,9195
1302438.6627551,154523.441406861,496,398,8605,664,School-Alternative,Kent Laboratory Academy,Lab Academy,10515 SE 208th St,98031,-122.19847512,47.41539662,0,10,KENT,0822059005,082205,9005
1263761.99995111,170839.999981016,497,1247,130,660,School-Elementary,Gregory Heights Elementary School,Heights,16201 16th Ave SW,98166,-122.35596034,47.45813139,2844,10,HIGHLINE,2523039001,252303,9001
1304810.99987394,253216.999924853,498,485,8628,660,School-Elementary,Peter Kirk Elementary School,Kirk,1312 6th St,98033,-122.19595125,47.68603675,0,10,LAKE WASHINGTON,3982701890,398270,1890
1314918.0000011,208124.999885932,499,185,99,660,School-Elementary,Somerset Elementary School,Somerset,14100 Somerset Blvd SE,98006,-122.15178749,47.56291882,3789,10,BELLEVUE,1524059091,152405,9091
1312708.00015603,268132.999948442,500,509,21187,661,School-Junior High/Middle,Kamiakin Middle School,Kamiakin,14111 132nd Ave NE,98034,-122.16494214,47.72730131,3922,10,LAKE WASHINGTON,2126059123,212605,9123
1352355.9999281,76715.9999091923,501,6600670,393851,663,School-College or University,Green River College - Enumclaw Campus,GRC,1414 Griffin Ave,98022,-121.99215308,47.2043628,0,10,ENUMCLAW,2420069046,242006,9046
1272283.99996744,227316.99988769,502,1071,438964,664,School-Alternative,The Northwest School,Northwest,1415 Summit Ave,98122,-122.32594577,47.61339052,0,20,SEATTLE,8804901000,880490,1000
1263224.00004286,120512.999913439,503,323,2374,661,School-Junior High/Middle,Lakota Middle School,Lakota,1415 SW 314th St,98023,-122.35411552,47.32015869,3381,10,FEDERAL WAY,0721049143,072104,9143
1260540.00016153,250648.000141606,504,1005,318188,662,School-High,Ballard High School,Ballard,1418 NW 65th St,98117,-122.37544487,47.67670507,2220,10,SEATTLE,3050700050,305070,0050
1315135.99989319,221502.000034764,505,6600592,86,664,School-Alternative,Jubilee REACH,Jubilee REACH,14200 SE 13th Pl,98007,-122.15183272,47.59959662,0,10,BELLEVUE,2207100005,220710,0005
1315840.0001256,222056.999909014,506,200,85,660,School-Elementary,Lake Hills Elementary School,Lake Hills,14310 SE 12th St,98007,-122.14901812,47.60115095,3225,10,BELLEVUE,0324059022,032405,9022
1274792.94015953,226767.320212767,507,6600709,440576,661,School-Junior High/Middle,Seattle Academy - Middle School,Seattle Academy,1137 13th Ave,98122,-122.31573276,47.61201679,,20,SEATTLE,2254500565,225450,0565
1272511.99983953,247336.999873847,508,6600698,834446,664,School-Alternative,McDonald International Elementary School,McDonald Intl,144 NE 54th St,98105,-122.32659618,47.66827691,,10,SEATTLE,9550202395,955020,2395
1264408.99996944,254429.000125527,509,1009,322234,660,School-Elementary,Greenwood Elementary School,Greenwood,144 NW 80th St,98117,-122.36004722,47.68728,2123,10,SEATTLE,2919200635,291920,0635
1323462.99997143,174604.99999693,510,755,600543,661,School-Junior High/Middle,Maywood Middle School,Maywood,14490 168th Ave SE,98059,-122.11492148,47.47143274,3636,10,ISSAQUAH,2423059005,242305,9005
1291460.9999992,269569.000029191,511,2116,148244,663,School-College or University,Bastyr University,Bastyr,14500 Juanita Dr NE,98028,-122.25136558,47.73019704,0,10,LAKE WASHINGTON,2426049007,242604,9007
1264361.00006545,175568.000039443,512,1259,133,660,School-Elementary,Seahurst Elementary School,Seahurst,14603 14th Ave SW,98166,-122.35391705,47.47112308,3382,10,HIGHLINE,1430800010,143080,0010
1316798.99984802,218136.999875024,513,194,91,660,School-Elementary,Eastside Christian School,Eastside Christian,14615 SE 22nd St,98007,-122.1448608,47.59045073,0,20,BELLEVUE,8838900200,883890,0200
1275637.61793211,221555.735163525,514,6600648,762784,664,School-Alternative,Bright Water Waldorf School,Bright Water,1414 S Weller St,98144,-122.31190305,47.59777646,0,20,SEATTLE,3320500190,332050,0190
1317702.00001052,184154.999925777,515,745,2411,660,School-Elementary,Apollo Elementary School,Apollo,15025 SE 117th St,98059,-122.13886624,47.49734487,3746,10,ISSAQUAH,0638100185,063810,0185
1296562.99996577,272551.999968693,516,258,5929,660,School-Elementary,Moorlands Elementary School,Moorlands,15115 84th Ave NE,98028,-122.23085752,47.73862931,3442,10,NORTHSHORE,5631500036,563150,0036
1270874.00016278,273020.000016943,517,6600110,130194,664,School-Alternative,The Evergreen School,Evergreen,15201 Meridian Ave N,98133,-122.33527676,47.73858568,0,20,SHORELINE,1826049236,182604,9236
1319178.00001128,253241.99987486,518,6600020,12149,665,School-Other Facility,Support Service Center,Support Service Center,15212 NE 95th St,98052,-122.13763185,47.68678761,0,10,LAKE WASHINGTON,9430500100,943050,0100
1277549.99993411,183233.000129357,519,1277,12266,660,School-Elementary,Hilltop Elementary School,Hilltop,12250 24th Ave S,98168,-122.30119145,47.49283458,3165,10,HIGHLINE,0257000231,025700,0231
1276034.00001335,266767.000055775,520,1101,272614,664,School-Alternative,St. Matthew School,St. Matthew,1230 NE 127th St,98125,-122.31382127,47.72172049,0,20,SEATTLE,6414100390,641410,0390
1309999.99999461,236463.999966353,521,157,117736,660,School-Elementary,Cherry Crest Elementary School,Cherry Crest,12400 NE 32nd St,98005,-122.17370291,47.64036549,3742,10,BELLEVUE,2125059050,212505,9050
1314365.78260161,274031.985853851,522,793,83729,662,School-High,Chrysalis Middle and High School,Chrysalis,15900 Woodinville-Redmond Rd NE,98072,-122.15861993,47.74354928,0,20,NORTHSHORE,1526059060,152605,9060
1288962.00007594,102083.000028104,523,599,12130,660,School-Elementary,Alpac Elementary School,Alpac,310 Milwaukee Blvd N,98047,-122.24900192,47.27098853,3825,10,AUBURN,3621049006,362104,9006
1266782.00014469,236389.000116348,524,6600128,414769,664,School-Alternative,Queen Anne Elementary School,Queen Anne,2100 4th Ave N,98109,-122.34897238,47.63796181,0,10,SEATTLE,0809003050,080900,3050
1281473.99996011,122586.000032514,525,11,21,660,School-Elementary,Lake Dolloff Elementary School,Lake Dolloff,4200 S 308th St,98001,-122.28070944,47.32680535,3738,10,FEDERAL WAY,1021049002,102104,9002
1308446.17304978,282654.535865933,526,6600105,176556,666,School-K-12,Woodinville Montessori School - Main Campus,Woodinville Montessori,19102 North Creek Pkwy,98011,-122.18329088,47.76690224,0,20,NORTHSHORE,6979200320,697920,0320
1310009.99997461,209961.000150934,527,182,98,662,School-High,Newport High School,Newport,4333 Factoria Blvd SE,98006,-122.17179298,47.56771924,3486,10,BELLEVUE,1624059023,162405,9023
1343582.19332877,194285.392722681,528,342,996968,660,School-Elementary,Clark Elementary School,Clark,335 1st Ave SE,98027,-122.03482618,47.52626897,2738,10,ISSAQUAH,3424069028,342406,9028
1274600.99992661,246704.000155598,529,868,12405,664,School-Alternative,University Child Development School,UCDS,5062 9th Ave NE,98105,-122.31806984,47.66665266,0,20,SEATTLE,2862100610,286210,0610
1345058.00008844,193612.000040606,530,357,1129642,661,School-Junior High/Middle,Issaquah Middle School,Issaquah Middle,600 2nd Ave SE,98027,-122.02881122,47.52448608,3038,10,ISSAQUAH,3424069030,342406,9030
1280872.99984978,249595.999949023,531,957,12403,660,School-Elementary,Assumption St. Bridget School,Assumption,6220 32nd Ave NE,98115,-122.2928424,47.67490844,0,20,SEATTLE,1868903240,186890,3240
1338010.00007686,246884.000123695,532,6600174,12139,664,School-Alternative,Explorer Community School,Explorer Community,7040 208th Ave NE,98053,-122.06077162,47.67020867,1687,10,LAKE WASHINGTON,0825069008,082506,9008
1306751.99992894,199189.00004144,533,698,9371,660,School-Elementary,Hazelwood Elementary School,Hazelwood,7100 116th Ave SE,98056,-122.18422247,47.53803636,3485,10,RENTON,2824059124,282405,9124
1397405.00005302,192248.00014393,534,758,21151,662,School-High,Mount Si High School,Mount Si ,8651 Meadowbrook Way SE,98065,-121.81688936,47.52277849,2850,10,SNOQUALMIE VALLEY,3224089060,322408,9060
1336903.99999228,250933.999897689,535,2314,366184,666,School-K-12,The Bear Creek School,Bear Creek,8905 208th Ave NE,98053,-122.06552313,47.68126182,0,20,LAKE WASHINGTON,0525069015,052506,9015
1326386.33303553,144212.255336359,536,529,8586,661,School-Junior High/Middle,Maple View Middle School,Maple View Middle,18200 SE 240th ST,98042,-122.1010795,47.38825558,0,10,TAHOMA,1822069011,182206,9011
1276873.99997377,234901.000139609,537,947,422778,664,School-Alternative,Seattle Hebrew Academy,Seattle Hebrew,1617 Interlaken Dr E,98112,-122.30792902,47.63442066,0,20,SEATTLE,2125049015,212504,9015
1351126.00009152,201660.000020683,538,6600675,905987,660,School-Elementary,Grand Ridge Elementary School,Grand Ridge,1739 NE Park Dr,98029,-122.00475027,47.54680278,5056,10,ISSAQUAH,3629780160,362978,0160
1293084.00003402,283263.999870107,539,253,5930,660,School-Elementary,Kenmore Elementary School,Kenmore,19121 71st Ave NE,98028,-122.24579292,47.76781706,2993,10,NORTHSHORE,0126049010,012604,9010
1257385.99990785,214324.999953106,540,1003,470930,662,School-High,West Seattle High School,West Seattle,3000 California Ave SW,98116,-122.38527233,47.57697226,2234,10,SEATTLE,8702100050,870210,0050
1315751.99997352,215825.999903858,541,191,155119,663,School-College or University,Bellevue College,Bellevue College,3000 Landerholm Cir SE,98007,-122.14894309,47.58406708,0,10,BELLEVUE,1024059008,102405,9008
1267126.00011286,122398.000080436,542,322,2369,660,School-Elementary,Lake Grove Elementary School,Lake Grove,303 SW 308th St,98023,-122.33853593,47.32553564,3568,10,FEDERAL WAY,0721049180,072104,9180
1270591.00007261,122971.999916688,543,102,2367,664,School-Alternative,St. Vincent de Paul School,St. Vincent De Paul,30527 8th Ave S,98003,-122.32461255,47.32729384,0,20,FEDERAL WAY,0821049005,082104,9005
1273154.81810769,122871.716324598,544,81,2368,662,School-High,Federal Way High School,Federal Way,30611 16th Ave S,98003,-122.31426905,47.32715467,2417,10,FEDERAL WAY,0821049001,082104,9001
1341099.00013244,120354.999901354,545,6600467,806270,660,School-Elementary,Sawyer Woods Elementary School,Woods,31135 228th Ave SE,98010,-122.04018443,47.32350821,4466,10,KENT,0921069018,092106,9018
1276926.99986778,119930.000095189,546,77,2378,664,School-Alternative,Career Academy at Truman Campus,Truman Campus,31455 28th Ave S,98003,-122.29883613,47.31928944,5163,10,FEDERAL WAY,0921049054,092104,9054
1280478.99998161,230262.99990119,547,6600720,442094,660,School-Elementary,The Valley School,Valley,318 30th Ave E,98112,-122.29295331,47.62189632,,20,SEATTLE,9209900590,920990,0590
1280728.00013977,212506.999980181,548,1178,458345,660,School-Elementary,John Muir Elementary School,Muir,3301 S Horton St,98144,-122.29058072,47.57324008,2143,10,SEATTLE,1524049002,152404,9002
1262842.0001507,112279.999975264,549,2201,841929,664,School-Alternative,TAF@Saghalie,TAF@Saghalie,33914 19th Ave SW,98023,-122.35499914,47.29757189,4456,10,FEDERAL WAY,1921049033,192104,9033
1303677.3886241,217815.934572265,550,127,103322,660,School-Elementary,Enatai Elementary School,Enatai,10700 SE 25th St,98004,-122.19800481,47.58894532,2846,10,BELLEVUE,3860400035,386040,0035
1262655.99986653,123763.999973103,551,313,868283,660,School-Elementary,Adelaide Elementary School,Adelaide,1635 SW 304th St,98023,-122.35666438,47.32903868,3519,10,FEDERAL WAY,1221039084,122103,9084
1301193.9998901,213359.999914601,552,6600714,191175,664,School-Alternative,French-American School of Puget Sound,FASPS,3795 E Mercer Way,98040,-122.20774444,47.57661022,,20,MERCER ISLAND,2655500115,265550,0115
1258461.00005443,205401.000084609,553,1108,478384,660,School-Elementary,Fairmount Park Elementary School,Fairmount Park,3800 SW Findlay St,98126,-122.38019132,47.55257146,3518,10,SEATTLE,9396700035,939670,0035
1270817.39003977,259343.084129348,554,6600228,839232,664,School-Alternative,Middle College High School at North Seattle College,Middle College at North Seattle,9600 College Way N,98103,-122.33442282,47.70109481,1547,10,SEATTLE,3226049021,322604,9021
1270583.0000886,173772.000022516,555,6600612,755358,665,School-Other Facility,Highline Performing Arts Center,Highline Arts,401 S 152nd St,98148,-122.32862371,47.46653449,0,10,HIGHLINE,2023049020,202304,9020
1281356.99986602,135553.000017107,556,438,680003,660,School-Elementary,Star Lake Elementary School,Star Lake,26812-B 40th Ave S,98032,-122.28216518,47.36234175,3160,10,FEDERAL WAY,2722049152,272204,9152
1297351.00003019,212374.999916106,557,6600383,9273,660,School-Elementary,Northwood Elementary School,Northwood,4030 86th Ave SE,98040,-122.22323949,47.57372111,0,10,MERCER ISLAND,1824059006,182405,9006
1280505.99992761,125307.99983786,558,5,17,660,School-Elementary,Camelot Elementary School,Camelot,4041 S 298th St,98001,-122.28481876,47.33421635,3547,10,FEDERAL WAY,0321049061,032104,9061
1295395.00000519,211648.000057772,559,559,192040,660,School-Elementary,West Mercer Elementary School,West Mercer,4141 81st Ave SE,98040,-122.23110886,47.57163127,3433,10,MERCER ISLAND,9365700100,936570,0100
1297276.99985011,211511.000003681,560,6600344,192046,665,School-Other Facility,Administration Center-Mercer Island,Admin,4160 86th Ave SE,98040,-122.22347602,47.57134918,0,10,MERCER ISLAND,1824059005,182405,9005
1297515.00003028,210617.000151277,561,556,9279,666,School-K-12,St. Monica Catholic School,St. Monica,4320 87th Ave SE,98040,-122.22244668,47.56891047,0,20,MERCER ISLAND,3622500126,362250,0126
1297133.0001381,116890.999939606,562,6600632,713339,665,School-Other Facility,Auburn Administrative Center,Admin Center,915 4th St NE,98002,-122.21716839,47.3119848,0,10,AUBURN,2648000090,264800,0090
1345070.00006445,192836.999950185,563,355,570012,662,School-High,Issaquah High School,Issaquah High,700 2nd Ave SE,98027,-122.02871395,47.52236219,3385,10,ISSAQUAH,3424069030,342406,9030
1277713.9999342,231974.000088111,564,937,435298,662,School-High,Holy Names Academy,Holy Names,728 21st Ave E,98112,-122.3042958,47.62644185,0,20,SEATTLE,1338800660,133880,0660
1279097.00012094,254033.999931276,565,6600060,345520,664,School-Alternative,University Prep,U Prep,8000 25th Ave NE,98115,-122.30039337,47.68698039,0,20,SEATTLE,1513800010,151380,0010
1272523.00014561,225256.000072688,566,865,436176,662,School-High,O'Dea High School,O'Dea,802 Terry Ave,98104,-122.32481506,47.60775407,0,20,SEATTLE,5392100055,539210,0055
1344583.0000542,192515.999936014,567,6600367,2421,665,School-Other Facility,Transportation Center,Transportation Center,805 2nd Ave SE,98027,-122.0306645,47.52146153,0,10,ISSAQUAH,3424069030,342406,9030
1277258.43096344,216501.532673523,568,6600717,1268205,661,School-Junior High/Middle,Lake Washington Girls Middle School,LWGMS,2100 S Walker St,98144,-122.30494334,47.5840081,0,20,SEATTLE,1498302175,149830,2175
1295350.00009519,184798.999950111,569,1304,12261,660,School-Elementary,Bryn Mawr Elementary School,Bryn Mawr,8212 S 118th St,98178,-122.22931856,47.49803484,2439,10,RENTON,3810400035,381040,0035
1296453.9998557,267478.999944106,570,505,168003,660,School-Elementary,Henry David Thoreau Elementary School,Thoreau,8224 NE 138th St,98034,-122.23092609,47.72471867,0,10,LAKE WASHINGTON,2426049146,242604,9146
1296042.00002353,229797.999846935,571,152,988985,664,School-Alternative,St. Thomas School,St. Thomas,8300 NE 12th St,98039,-122.22982221,47.62141332,0,20,BELLEVUE,2525049106,252504,9106
1274629.9998686,253637.000069097,572,963,835351,660,School-Elementary,Fairview Christian School,Fairview Christian,844 NE 78th St,98115,-122.31849506,47.68565737,0,20,SEATTLE,2464400730,246440,0730
1274314.99984244,255452.000048026,573,981,12395,664,School-Alternative,St. Catherine of Siena Parish School,St. Catherine ,8524 8th Ave NE,98115,-122.31991601,47.69061557,0,20,SEATTLE,5100400125,510040,0125
1285257.99993803,195067.000083357,574,6600237,927161,664,School-Alternative,Alan T. Sugiyama High School,Sugiyama,8601 Rainier Ave S,98118,-122.27091262,47.52567045,3778,10,SEATTLE,2123700250,212370,0250
1282028.15994102,213119.575198606,575,10000101,473543,660,School-Elementary,The Lake and Park School,Lake and Park,3201 Hunter Blvd S,98144,-122.28536131,47.57498651,0,20,SEATTLE,5700002905,570000,2905
1313301.03834002,267939.270677105,576,506,21186,660,School-Elementary,John Muir Elementary School,Muir,14012 132nd Ave NE,98034,-122.16251928,47.72679839,0,10,LAKE WASHINGTON,2226059038,222605,9038
1312733.00010602,138451.0001266,577,576,8603,660,School-Elementary,Meridian Elementary School,Meridian,25621 140th Ave SE,98042,-122.15578797,47.37183368,2565,10,KENT,2722059062,272205,9062
1345070.00006445,226048.000129104,578,2179,12220,662,School-High,Eastlake High School,Eastlake,400 228th Ave NE,98074,-122.03080492,47.61339894,4439,10,LAKE WASHINGTON,3425069021,342506,9021
1265823.00009419,246198.999853268,579,6600706,310251,664,School-Alternative,Northwest Montessori - Woodland Park,Northwest Montessori,4910 Phinney Ave N,98103,-122.35364745,47.66479873,,20,SEATTLE,9521100045,952110,0045
1264982.00013578,275727.999850273,580,1291,16148,660,School-Elementary,Highland Terrace Elementary School,Highland Terrace,100 N 160th St,98133,-122.35943575,47.74569045,3231,10,SHORELINE,1326039052,132603,9052
1269767.0000802,229103.999922603,581,2194,441546,663,School-College or University,Cornish College of the Arts,Cornish College,1000 Lenora St,98121,-122.33628994,47.61815436,0,10,SEATTLE,0660001420,066000,1420
1239196.9998686,160578.000163853,582,770,21170,661,School-Junior High/Middle,McMurray Middle School,McMurray,9329 SW Cemetery Rd,98070,-122.45436221,47.42862885,3667,10,VASHON ISLAND,0522039067,052203,9067
1280426.0000876,252405.999906436,583,962,12297,661,School-Junior High/Middle,Eckstein Middle School,Eckstein,3003 NE 75th St,98115,-122.29487305,47.68258737,2729,10,SEATTLE,0425049022,042504,9022
1305760.70007427,244954.10011211,584,6600692,42811,664,School-Alternative,International Community School,International Community,11133 NE 65th St,98033,-122.19150418,47.66343369,,10,LAKE WASHINGTON,2926059049,292605,9049
1272164.99987736,264329.00001052,585,1149,247853,660,School-Elementary,James Baldwin Elementary School,Baldwin,11725 1st Ave NE,98125,-122.32934457,47.71483294,3027,10,SEATTLE,6411600312,641160,0312
1305124.99990211,267356.999860018,586,504,165571,660,School-Elementary,Helen Keller Elementary School,Keller,13820 108th Ave NE,98034,-122.19569268,47.72481045,0,10,LAKE WASHINGTON,2026059105,202605,9105
1317726.99996053,218718.000025347,587,6600687,90,664,School-Alternative,Bellevue Big Picture School,Bellevue Big Picture,14844 SE 22nd St,98007,-122.14114062,47.59208659,,10,BELLEVUE,0224059054,022405,9054
1279167.87104219,199712.384165272,588,915,465918,661,School-Junior High/Middle,Mercer International Middle School,Mercer Int'l,7201 Beacon Ave S,98108,-122.29591504,47.53808893,3095,10,SEATTLE,5129000050,512900,0050
1322605.61914027,248755.885487527,589,6600690,357696,664,School-Alternative,Transition Academy at Together Center,Transition Academy,16305 NE 87th St,98052,-122.12341234,47.67464911,0,10,LAKE WASHINGTON,7202200100,720220,0100
1305897.99999653,258800.999911681,590,449,32812,660,School-Elementary,Alexander Graham Bell Elementary School,Bell,11212  NE 112th St,98033,-122.1919389,47.70139547,0,10,LAKE WASHINGTON,3226059008,322605,9008
1271254.00005893,163212.000145182,591,6600615,755385,664,School-Alternative,Choice Academy (6-12),Choice Academy,18367 8th Ave S,98148,-122.32508409,47.43762553,1539,10,HIGHLINE,3223049070,322304,9070
1343176.99991344,150900.000162944,592,6600044,620395,665,School-Other Facility,Maintenance,Maint,23015 SE 216th Way,98038,-122.03372769,47.40732552,0,10,TAHOMA,1022069035,102206,9035
1349751.99988678,115233.999972776,593,239,638133,660,School-Elementary,Black Diamond Elementary School,Black Diamond,25314 Baker St,98010,-122.00498677,47.30983731,3430,10,ENUMCLAW,0844000325,084400,0325
1307359.84123294,188363.991835847,594,6600626,125984,660,School-Elementary,Meadow Crest Early Learning Center,Meadow Crest,1800 Index Ave NE,98056,-122.18099478,47.50839345,3006,10,RENTON,7227800135,722780,0135
1274231.00001045,206292.999941021,595,919,477595,664,School-Alternative,St. George Parish School,St. George,5117 13th Ave S,98108,-122.31641122,47.55586735,0,20,SEATTLE,5141000220,514100,0220
1264032.00006728,208977.000150442,596,2303,466180,664,School-Alternative,Pathfinder K-8 School,Pathfinder,1901 SW Genesee St,98106,-122.35792248,47.56267782,0,10,SEATTLE,1324039116,132403,9116
1298357.85562803,284251.268236771,597,6600331,176176,664,School-Alternative,Soreson Early Childhood Center,Soreson,19705 88th Ave NE ,98011,-122.22442356,47.7707865,0,10,NORTHSHORE,0626059101,062605,9101
1275938.29646461,227990.412910938,598,6600667,838646,661,School-Junior High/Middle,Morningside Academy,Morningside,1605 17th Ave,98122,-122.31118533,47.61542964,0,20,SEATTLE,7234600515,723460,0515
1273757.65318811,145384.009226441,599,1358,390877,660,School-Elementary,Des Moines Elementary School,Des Moines,23801 16th Ave S,98198,-122.31358434,47.38889199,2418,10,HIGHLINE,1722049100,172204,9100
1279745.50013627,285984.899940103,600,6600298,16145,665,School-Other Facility,Aldercrest Campus,Aldercrest,2800 NE 200th St,98155,-122.30023308,47.77459112,0,10,SHORELINE,2636900086,263690,0086
1264189.80257319,261195.717563182,601,6600701,746393,664,School-Alternative,Viewlands Elementary School,Viewlands,10525 3rd Ave NW,98177,-122.36148242,47.70581526,,10,SEATTLE,7474900060,747490,0060
1275744.89986977,250604.400163189,602,944,420683,660,School-Elementary,Montlake Elementary School,Montlake,520 NE Ravenna Blvd,98115,-122.31373269,47.67740397,2322,10,SEATTLE,9528103775,952810,3775
1264437.82471494,239478.863031104,603,6600130,832291,664,School-Alternative,Cascade Parent Partnership Program,Cascade PPP,2919 1st Ave W,98119,-122.35872734,47.64630403,0,10,SEATTLE,2425039001,242503,9001
1278305.54533902,217964.676072687,604,6600719,838330,661,School-Junior High/Middle,Seattle Girls School,Seattle Girls,1700 24th Ave S,98144,-122.30081422,47.58807338,,20,SEATTLE,2394600095,239460,0095
1259983.9999612,116638.000117525,605,326,2384,660,School-Elementary,Olympic View K-8 School,Olympic View K-8,2626 SW 327th St,98023,-122.36686399,47.30936136,3432,10,FEDERAL WAY,1321039008,132103,9008
1327772.99988161,235063.000143692,606,608,12156,660,School-Elementary,John James Audubon Elementary School,Audubon,3045 180th Ave NE,98052,-122.10152471,47.63735083,3548,10,LAKE WASHINGTON,2425059100,242505,9100
1336281.99992394,235428.000069857,607,6600175,374731,660,School-Elementary,Elizabeth Blackwell Elementary School,Blackwell,3225 205th Pl NE,98074,-122.06703899,47.63873045,4532,10,LAKE WASHINGTON,8651590010,865159,0010
1397805.9999072,192576.000144109,608,6600627,21151,664,School-Alternative,Two Rivers School,Two Rivers,8651 Meadowbrook Way SE,98065,-121.81528348,47.52369167,1502,10,SNOQUALMIE VALLEY,3224089060,322408,9060
1376496.99987435,190785.000117183,609,6600549,2356,664,School-Alternative,Echo Glen School,Echo Glen,33010 SE 99th St,98065,-121.90141899,47.51800409,3569,10,ISSAQUAH,3424079001,342407,9001
1343741.00009778,194419.000067025,610,6600688,996972,664,School-Alternative,Gibson Ek High School,Gibson Ek,379 1st Pl SE,98027,-122.03419193,47.526642,,10,ISSAQUAH,3424069028,342406,9028
1318364.28346285,225994.904762849,611,6600668,95,664,School-Alternative,Puesta Del Sol Elementary,Puesta Del Sol,301 151st Pl NE,98007,-122.13905857,47.61206295,3224,10,BELLEVUE,3525059055,352505,9055
1267743.99986111,180803.000068098,612,1197,149,660,School-Elementary,Hazel Valley Elementary School,Hazel Valley,402 SW 132nd St,98146,-122.34065587,47.48565443,2699,10,HIGHLINE,1823049087,182304,9087
1282663.99987669,176505.000133932,613,1272,21155,662,School-High,Foster High School,Foster,4242 S 144th St,98168,-122.27999793,47.47465858,2848,10,TUKWILA,1523049108,152304,9108
1343556.0001397,238942.999929607,614,6600691,1008082,664,School-Alternative,Nikola Tesla STEM High School,Tesla STEM,4301 228th Ave NE,98053,-122.03776038,47.6486814,,10,LAKE WASHINGTON,1625069020,162506,9020
1270520.99988453,162986.999939024,615,6600459,132,664,School-Alternative,Big Picture (6-12) School,Big Picture,440 S 186th St,98148,-122.32802767,47.43696982,0,10,HIGHLINE,3223049094,322304,9094
1257336.00000785,209380.999998599,616,6600655,833797,664,School-Alternative,Hope Lutheran School,Hope Lutheran,4456 42nd Ave SW,98116,-122.38507106,47.56341831,0,20,SEATTLE,0952005960,095200,5960
1336135.99988785,85935.999841854,617,311,391899,660,School-Elementary,Westwood Elementary School,Westwood,21200 SE 416th St,98022,-122.05798364,47.22894698,3585,10,ENUMCLAW,0920069070,092006,9070
1345976.99989086,228737.000000432,618,661,12224,660,School-Elementary,Samantha Smith Elementary School,Smith,23305 NE 14th St,98074,-122.02729721,47.62080855,0,10,LAKE WASHINGTON,2725069032,272506,9032
1284478.99985561,244889.999846607,619,876,345476,660,School-Elementary,Laurelhurst Elementary School,Laurelhurst,4530 46th Ave NE,98105,-122.27784942,47.66219579,2437,10,SEATTLE,5364200330,536420,0330
1284122.99991144,176361.000093848,620,6600240,21157,665,School-Other Facility,Administration Center-Tukwila,Admin,4640 S 144th St,98168,-122.27408858,47.4743389,0,10,TUKWILA,1523049108,152304,9108
1273587.35989353,250556.475718349,621,1303,916043,660,School-Elementary,John Rogers Elementary School,Rogers,520 NE Ravenna Blvd,98115,-122.32248536,47.67715852,2977,10,SEATTLE,9528103775,982810,3775
1270465.99999453,120165.999951273,622,90,2375,660,School-Elementary,Mirror Lake Elementary School,Mirror Lake,625 S 314th St,98003,-122.32489723,47.31959607,3159,10,FEDERAL WAY,0821049035,082104,9035
1287962.00010744,146100.999918431,623,429,615051,660,School-Elementary,Neely-O Brien Elementary School,Brien,6300 S 236th St,98032,-122.25630645,47.39159165,4356,10,KENT,1422049030,142204,9030
1272570.0000516,221075.999902517,624,6600708,978954,662,School-High,Puget Sound Community School,Puget Sound Comm,660 S Dearborn St,98134,-122.32429635,47.59629929,,20,SEATTLE,5247802530,524780,2530
1291427.00006719,272071.999944434,625,242,149230,660,School-Elementary,Arrowhead Elementary School,Arrowhead,6725 NE Arrowhead Dr,98028,-122.25169112,47.73705607,3107,10,NORTHSHORE,1426049070,142604,9070
1254526.6188156,212820.194891855,626,6600430,490868,660,School-Elementary,Alki Elementary School,Alki,5000 SW Spokane St,98116,-122.39673077,47.57268905,0,10,SEATTLE,6318000005,631800,0005
1272039.00012936,201132.000092432,627,10000025,486287,663,School-College or University,South Seattle College-Georgetown Campus,SSC Georgetown,6800 E Marginal Way S,98108,-122.32488174,47.54160502,0,10,SEATTLE,0001800137,000180,0137
1306718.79363053,200225.669227943,628,6600679,9370,661,School-Junior High/Middle,Risdon Middle School,Risdon,6928 116th Ave SE,98056,-122.18443055,47.54087634,0,10,RENTON,2824059127,282405,9127
1276724.99994369,231641.00009793,629,949,442411,664,School-Alternative,St. Joseph School,St. Joseph,700 18th Ave E,98112,-122.30827988,47.62547722,0,20,SEATTLE,1336800825,133680,0825
1338216.99999094,246802.999957606,630,649,12139,660,School-Elementary,Emily Dickinson Elementary School,Dickinson,7040 208th Ave NE,98053,-122.05992634,47.66999568,4018,10,LAKE WASHINGTON,0825069008,082506,9008
1285016.00009394,251607.999862015,631,984,352107,660,School-Elementary,View Ridge Elementary School,View Ridge,7047 50th Ave NE,98115,-122.27618163,47.68063746,2667,10,SEATTLE,7974200250,797420,0250
1273086.00000386,231649.000081941,632,2195,447371,663,School-College or University,Cornish College Kerry Hall,Cornish College Kerry Hall,710 E Roy St,98102,-122.32303474,47.62530702,0,10,SEATTLE,9831200125,983120,0125
1293510.99983619,180256.99984777,633,2744,518842,662,School-High,Talley High School,Talley,7800 S 132nd St,98178,-122.23642177,47.48549338,0,10,RENTON,2144800350,214480,0350
1394480.99999553,194499.99990502,634,6600151,195851,665,School-Other Facility,Administration/Transportation,Admin,8001 SE Cedar St,98065,-121.82884041,47.52884877,0,10,SNOQUALMIE VALLEY,3024089020,302408,9020
1296427.99990769,265582.000129193,635,6600176,8619,664,School-Alternative,Environmental and Adventure School,Enviro and Adventure,8040 NE 132nd St ,98034,-122.23089177,47.71951765,1800,10,LAKE WASHINGTON,2426049128,242604,9128
1312641.99995995,194668.999895111,636,6600129,744669,660,School-Elementary,Newcastle Elementary School,Newcastle,8400 136th Ave SE,98059,-122.16006536,47.52592753,4592,10,ISSAQUAH,3424059034,342405,9034
1281624.99998619,226331.99988918,637,1081,443601,664,School-Alternative,St. Therese Catholic Academy,St. Therese,900 35th Ave,98122,-122.28800592,47.61118093,0,20,SEATTLE,9184700280,918470,0280
1274442.99991453,226276.99999918,638,1079,448115,663,School-College or University,Seattle University,Seattle U,901 12th Ave,98122,-122.3171129,47.61065434,0,20,SEATTLE,2254500555,225450,0555
1257803.00005811,257329.999900937,639,1012,12287,660,School-Elementary,North Beach Elementary School,North Beach,9018 24th Ave NW,98117,-122.38710024,47.69486907,3218,10,SEATTLE,3526039024,352603,9024
1298819.00004694,211579.999865681,640,548,9278,662,School-High,Mercer Island High School,Mercer Island,9100 SE 42nd St,98040,-122.21723538,47.57161449,3029,10,MERCER ISLAND,1824059005,182405,9005
1299657.00001135,280241.00001061,641,245,178050,662,School-High,Bothell High School,Bothell,9130 NE 180th St,98011,-122.21884778,47.75985845,3106,10,NORTHSHORE,0726059016,072605,9016
1277675.62271436,213072.212760523,642,1179,461331,660,School-Elementary,Kimball Elementary School,Kimball ,3200 23rd Ave S,98144,-122.30298787,47.57463022,3478,10,SEATTLE,1624049006,162404,9006
1282954.56753702,162337.490411267,643,10000079,12237,662,School-High,Tyee High School - Olympic Interim site,Tyee,615 S 200th St,98198,-122.27774828,47.43584033,0,10,HIGHLINE,7893206625,789320,6625
1323765.48952395,263534.146285266,644,10000085,32972,664,School-Alternative,Transition Academy at YMCA,Transition Academy,16601 NE 80th St,98052,-122.11970747,47.715211,0,10,LAKE WASHINGTON,2926059032,292605,9032
1283018.55198911,253475.342912108,645,10000092,1170018,660,School-Elementary,Thornton Creek Elementary School,Thornton Creek,7712 40th Ave NE,98115,-122.28443181,47.68565291,0,10,SEATTLE,6392002220,639200,2220
1265498.00008802,229848.000075027,646,10000099,,662,School-High,The Downtown School,Downtown,160 John St,98109,-122.3536555,47.61996379,0,20,SEATTLE,1985200065,198520,0065
1297176.27597019,95854.2559239417,647,10001787,0000,660,School-Elementary,Lakeland Hills Elementary School,Lakeland Hills,1020 Evergreen Way SE,98092,-122.21547142,47.25432474,0,10,AUBURN,,,
1303433.03543827,136669.801589265,648,10001788,0000,661,School-Junior High/Middle,Canyon Ridge Middle School,Canyon Ridge,11000 SE 264th St,98030,-122.19318569,47.36650709,,10,HIGHLINE,8830400015,883040,0015
1324300.39987144,249179.19992961,649,10001789,0000,664,School-Alternative,Transition Academy at Redmond Elementary,Transition Academy,16800 NE 80th St,98052,-122.11656271,47.67588712,,10,LAKE WASHINGTON,0125059048,012505,9048
1313132.83723286,185633.735813439,650,10001790,0000,660,School-Elementary,Hilltop Heritage Elementary School,Hilltop Heritage,1075 Duvall Ave NE,98059,-122.15744991,47.50118426,,10,RENTON,1023059124,102305,9124
1260035.43161686,201425.013614014,651,10001791,000,660,School-Elementary,West Seattle Elementary,West Seattle,6760 34th Ave SW,98126,-122.37349468,47.54176007,,10,SEATTLE,2524039050,252403,9050
